index,SEARCHVAL,BLK_NO,ROAD_NAME,BUILDING,ADDRESS,POSTAL,X,Y,LATITUDE,LONGITUDE,LONGTITUDE
0,EUNOS MRT STATION EXIT A,,NIL,EUNOS MRT STATION EXIT A,EUNOS MRT STATION EXIT A,NIL,35743.0776,33531.14163,1.319517275,103.9028941,103.9028941
1,EUNOS MRT STATION EXIT B,,NIL,EUNOS MRT STATION EXIT B,EUNOS MRT STATION EXIT B,NIL,35708.34817,33536.14644,1.319562546,103.9025821,103.9025821
2,EUNOS MRT STATION EXIT C,,NIL,EUNOS MRT STATION EXIT C,EUNOS MRT STATION EXIT C,NIL,35774.73652,33541.2482,1.319608667,103.90317859999999,103.90317859999999
3,EUNOS MRT STATION (EW7),30,EUNOS CRESCENT,EUNOS MRT STATION (EW7),30 EUNOS CRESCENT EUNOS MRT STATION SINGAPORE 409423,409423,35779.98898,33560.58575,1.319783548,103.90322579999999,103.90322579999999
4,UOB EUNOS MRT STATION,30,EUNOS CRESCENT,UOB EUNOS MRT STATION,30 EUNOS CRESCENT UOB EUNOS MRT STATION SINGAPORE 409423,409423,35767.07475,33561.22918,1.31978937,103.9031098,103.9031098
5,OCBC EUNOS MRT STATION,30,EUNOS CRESCENT,OCBC EUNOS MRT STATION,30 EUNOS CRESCENT OCBC EUNOS MRT STATION SINGAPORE 409423,409423,35763.899730000005,33560.70001,1.319784585,103.9030812,103.9030812
6,DBS EUNOS MRT STATION,30,EUNOS CRESCENT,DBS EUNOS MRT STATION,30 EUNOS CRESCENT DBS EUNOS MRT STATION SINGAPORE 409423,409423,35760.195569999996,33558.05416,1.3197606579999999,103.903048,103.903048
0,CHINESE GARDEN MRT STATION EXIT C,,NIL,CHINESE GARDEN MRT STATION EXIT C,CHINESE GARDEN MRT STATION EXIT C,NIL,16798.76465,36028.50938,1.342101479,103.7326688,103.7326688
1,CHINESE GARDEN MRT STATION EXIT B,,NIL,CHINESE GARDEN MRT STATION EXIT B,CHINESE GARDEN MRT STATION EXIT B,NIL,16770.49814,36043.19474,1.342234277,103.73241479999999,103.73241479999999
2,CHINESE GARDEN MRT STATION EXIT A,,NIL,CHINESE GARDEN MRT STATION EXIT A,CHINESE GARDEN MRT STATION EXIT A,NIL,16749.336069999998,36066.03662,1.342440843,103.7322246,103.7322246
3,CHINESE GARDEN MRT STATION (EW25),151,BOON LAY WAY,CHINESE GARDEN MRT STATION (EW25),151 BOON LAY WAY CHINESE GARDEN MRT STATION SINGAPORE 609959,609959,16790.74663,36056.301889999995,1.342352821,103.7325967,103.7325967
4,DBS CHINESE GARDEN MRT STATION,151,BOON LAY WAY,DBS CHINESE GARDEN MRT STATION,151 BOON LAY WAY DBS CHINESE GARDEN MRT STATION SINGAPORE 609959,609959,16809.65011,36044.3731,1.342244948,103.73276659999999,103.73276659999999
5,UOB CHINESE GARDEN MRT STATION,151,BOON LAY WAY,UOB CHINESE GARDEN MRT STATION,151 BOON LAY WAY UOB CHINESE GARDEN MRT STATION SINGAPORE 609959,609959,16809.65011,36044.3731,1.342244948,103.73276659999999,103.73276659999999
6,OCBC CHINESE GARDEN MRT STATION,151,BOON LAY WAY,OCBC CHINESE GARDEN MRT STATION,151 BOON LAY WAY OCBC CHINESE GARDEN MRT STATION SINGAPORE 609959,609959,16809.65011,36044.3731,1.342244948,103.73276659999999,103.73276659999999
0,KHATIB MRT STATION EXIT C,,NIL,KHATIB MRT STATION EXIT C,KHATIB MRT STATION EXIT C,NIL,27913.40591,44408.27819,1.417887193,103.83254050000001,103.83254050000001
1,KHATIB MRT STATION EXIT B,,NIL,KHATIB MRT STATION EXIT B,KHATIB MRT STATION EXIT B,NIL,27930.24505,44324.612030000004,1.4171305459999999,103.83269179999999,103.83269179999999
2,KHATIB MRT STATION EXIT D,,NIL,KHATIB MRT STATION EXIT D,KHATIB MRT STATION EXIT D,NIL,27983.66068,44408.786510000005,1.41789179,103.8331718,103.8331718
3,KHATIB MRT STATION EXIT A,,NIL,KHATIB MRT STATION EXIT A,KHATIB MRT STATION EXIT A,NIL,27959.2813,44314.19875,1.4170363730000002,103.8329527,103.8329527
4,KHATIB MRT STATION (NS14),201,YISHUN AVENUE 2,KHATIB MRT STATION (NS14),201 YISHUN AVENUE 2 KHATIB MRT STATION SINGAPORE 769092,769092,27962.31086,44352.567989999996,1.41738337,103.83297990000001,103.83297990000001
5,DBS KHATIB MRT STATION,201,YISHUN AVENUE 2,DBS KHATIB MRT STATION,201 YISHUN AVENUE 2 DBS KHATIB MRT STATION SINGAPORE 769092,769092,27971.340010000004,44375.3122,1.417589061,103.833061,103.833061
6,UOB KHATIB MRT STATION,201,YISHUN AVENUE 2,UOB KHATIB MRT STATION,201 YISHUN AVENUE 2 UOB KHATIB MRT STATION SINGAPORE 769092,769092,27971.340010000004,44375.3122,1.417589061,103.833061,103.833061
7,OCBC KHATIB MRT STATION,201,YISHUN AVENUE 2,OCBC KHATIB MRT STATION,201 YISHUN AVENUE 2 OCBC KHATIB MRT STATION SINGAPORE 769092,769092,27962.310889999997,44352.567989999996,1.41738337,103.83297990000001,103.83297990000001
0,KRANJI MRT STATION EXIT C,,NIL,KRANJI MRT STATION EXIT C,KRANJI MRT STATION EXIT C,NIL,20035.989530000003,45208.8271,1.4251259490000001,103.7617547,103.7617547
1,KRANJI MRT STATION EXIT A,,NIL,KRANJI MRT STATION EXIT A,KRANJI MRT STATION EXIT A,NIL,20065.32762,45166.12823,1.424739805,103.7620183,103.7620183
2,KRANJI MRT STATION EXIT B,,NIL,KRANJI MRT STATION EXIT B,KRANJI MRT STATION EXIT B,NIL,20055.97408,45179.48528,1.4248605980000002,103.7619343,103.7619343
3,KRANJI MRT STATION EXIT D,,NIL,KRANJI MRT STATION EXIT D,KRANJI MRT STATION EXIT D,NIL,20118.06716,45209.46375,1.42513173,103.7624922,103.7624922
4,KRANJI MRT STATION (NS7),960,WOODLANDS ROAD,KRANJI MRT STATION (NS7),960 WOODLANDS ROAD KRANJI MRT STATION SINGAPORE 738702,738702,20078.58651,45204.51685,1.425086981,103.7621375,103.7621375
5,UOB KRANJI MRT STATION,960,WOODLANDS ROAD,UOB KRANJI MRT STATION,960 WOODLANDS ROAD UOB KRANJI MRT STATION SINGAPORE 738702,738702,20074.3565,45202.535710000004,1.425069063,103.76209940000001,103.76209940000001
6,DBS KRANJI MRT STATION,960,WOODLANDS ROAD,DBS KRANJI MRT STATION,960 WOODLANDS ROAD DBS KRANJI MRT STATION SINGAPORE 738702,738702,20074.3565,45202.535710000004,1.425069063,103.76209940000001,103.76209940000001
7,OCBC KRANJI MRT STATION,960,WOODLANDS ROAD,OCBC KRANJI MRT STATION,960 WOODLANDS ROAD OCBC KRANJI MRT STATION SINGAPORE 738702,738702,20074.3565,45202.535710000004,1.425069063,103.76209940000001,103.76209940000001
0,REDHILL MRT STATION EXIT B,,NIL,REDHILL MRT STATION EXIT B,REDHILL MRT STATION EXIT B,NIL,26211.63411,30210.321539999997,1.2894858759999999,103.81724940000001,103.81724940000001
1,REDHILL MRT STATION EXIT A,,NIL,REDHILL MRT STATION EXIT A,REDHILL MRT STATION EXIT A,NIL,26183.61443,30197.230639999998,1.289367485,103.8169976,103.8169976
2,REDHILL MRT STATION (EW18),920,TIONG BAHRU ROAD,REDHILL MRT STATION (EW18),920 TIONG BAHRU ROAD REDHILL MRT STATION SINGAPORE 158792,158792,26155.0535,30226.75978,1.2896345340000002,103.81674100000001,103.81674100000001
3,UOB REDHILL MRT STATION,920,TIONG BAHRU ROAD,UOB REDHILL MRT STATION,920 TIONG BAHRU ROAD UOB REDHILL MRT STATION SINGAPORE 158792,158792,26188.77681,30195.095810000003,1.289348178,103.817044,103.817044
4,DBS REDHILL MRT STATION,920,TIONG BAHRU ROAD,DBS REDHILL MRT STATION,920 TIONG BAHRU ROAD DBS REDHILL MRT STATION SINGAPORE 158792,158792,26188.77681,30195.095810000003,1.289348178,103.817044,103.817044
0,YEW TEE MRT STATION (NS5),61,CHOA CHU KANG DRIVE,YEW TEE MRT STATION (NS5),61 CHOA CHU KANG DRIVE YEW TEE MRT STATION SINGAPORE 689715,689715,18438.983119999997,42158.0181,1.3975350690000001,103.7474052,103.7474052
1,OCBC YEW TEE MRT STATION,61,CHOA CHU KANG DRIVE,OCBC YEW TEE MRT STATION,61 CHOA CHU KANG DRIVE OCBC YEW TEE MRT STATION SINGAPORE 689715,689715,18440.440609999998,42151.48001,1.3974759419999998,103.7474182,103.7474182
2,DBS YEW TEE MRT STATION,61,CHOA CHU KANG DRIVE,DBS YEW TEE MRT STATION,61 CHOA CHU KANG DRIVE DBS YEW TEE MRT STATION SINGAPORE 689715,689715,18445.03069,42162.962889999995,1.39757979,103.74745949999999,103.74745949999999
3,OCBC YEW TEE MRT STATION - FAIRPRICE,61,CHOA CHU KANG DRIVE,OCBC YEW TEE MRT STATION - FAIRPRICE,61 CHOA CHU KANG DRIVE OCBC YEW TEE MRT STATION - FAIRPRICE SINGAPORE 689715,689715,18440.440609999998,42151.48001,1.3974759419999998,103.7474182,103.7474182
4,UOB YEW TEE MRT STATION,61,CHOA CHU KANG DRIVE,UOB YEW TEE MRT STATION,61 CHOA CHU KANG DRIVE UOB YEW TEE MRT STATION SINGAPORE 689715,689715,18450.29441,42175.3365,1.3976916940000002,103.7475068,103.7475068
0,PIONEER MRT STATION EXIT A,,NIL,PIONEER MRT STATION EXIT A,PIONEER MRT STATION EXIT A,NIL,12845.09863,35502.524339999996,1.337342939,103.6971431,103.6971431
1,PIONEER MRT STATION EXIT B,,NIL,PIONEER MRT STATION EXIT B,PIONEER MRT STATION EXIT B,NIL,12843.86427,35556.343660000006,1.33782966,103.6971319,103.6971319
2,PIONEER MRT STATION (EW28),31,JURONG WEST STREET 63,PIONEER MRT STATION (EW28),31 JURONG WEST STREET 63 PIONEER MRT STATION SINGAPORE 648310,648310,12864.96983,35529.51155,1.3375870109999999,103.6973216,103.6973216
3,DBS PIONEER MRT STATION,31,JURONG WEST STREET 63,DBS PIONEER MRT STATION,31 JURONG WEST STREET 63 DBS PIONEER MRT STATION SINGAPORE 648310,648310,12899.45681,35526.946489999995,1.337563831,103.6976315,103.6976315
4,OCBC PIONEER MRT STATION,31,JURONG WEST STREET 63,OCBC PIONEER MRT STATION,31 JURONG WEST STREET 63 OCBC PIONEER MRT STATION SINGAPORE 648310,648310,12875.74799,35530.2342,1.337593552,103.69741850000001,103.69741850000001
5,UOB PIONEER MRT STATION,31,JURONG WEST STREET 63,UOB PIONEER MRT STATION,31 JURONG WEST STREET 63 UOB PIONEER MRT STATION SINGAPORE 648310,648310,12875.74799,35530.2342,1.337593552,103.69741850000001,103.69741850000001
0,COMMONWEALTH MRT STATION EXIT B,,NIL,COMMONWEALTH MRT STATION EXIT B,COMMONWEALTH MRT STATION EXIT B,NIL,24075.50012,31677.825080000002,1.302757264,103.7980551,103.7980551
1,COMMONWEALTH MRT STATION EXIT C,,NIL,COMMONWEALTH MRT STATION EXIT C,COMMONWEALTH MRT STATION EXIT C,NIL,24154.860230000002,31603.27262,1.302083048,103.7987682,103.7987682
2,COMMONWEALTH MRT STATION EXIT D,,NIL,COMMONWEALTH MRT STATION EXIT D,COMMONWEALTH MRT STATION EXIT D,NIL,24148.85873,31596.440260000003,1.302021258,103.79871429999999,103.79871429999999
3,COMMONWEALTH MRT STATION EXIT A,,NIL,COMMONWEALTH MRT STATION EXIT A,COMMONWEALTH MRT STATION EXIT A,NIL,24064.72106,31665.76123,1.302648162,103.7979583,103.7979583
4,COMMONWEALTH MRT STATION (EW20),375,COMMONWEALTH AVENUE,COMMONWEALTH MRT STATION (EW20),375 COMMONWEALTH AVENUE COMMONWEALTH MRT STATION SINGAPORE 149735,149735,24094.795140000002,31649.59892,1.302501999,103.79822850000001,103.79822850000001
5,DBS COMMONWEALTH MRT STATION,375,COMMONWEALTH AVENUE,DBS COMMONWEALTH MRT STATION,375 COMMONWEALTH AVENUE DBS COMMONWEALTH MRT STATION SINGAPORE 149735,149735,24102.6854,31639.605310000003,1.302411622,103.7982994,103.7982994
6,UOB COMMONWEALTH MRT STATION,375,COMMONWEALTH AVENUE,UOB COMMONWEALTH MRT STATION,375 COMMONWEALTH AVENUE UOB COMMONWEALTH MRT STATION SINGAPORE 149735,149735,24096.25043,31644.5553,1.302456387,103.7982416,103.7982416
7,OCBC COMMONWEALTH MRT STATION,375,COMMONWEALTH AVENUE,OCBC COMMONWEALTH MRT STATION,375 COMMONWEALTH AVENUE OCBC COMMONWEALTH MRT STATION SINGAPORE 149735,149735,24099.71542,31641.090310000003,1.302425051,103.79827270000001,103.79827270000001
0,PAYA LEBAR MRT STATION EXIT C,,NIL,PAYA LEBAR MRT STATION EXIT C,PAYA LEBAR MRT STATION EXIT C,NIL,34498.84793,33379.63206,1.318147366,103.8917141,103.8917141
1,PAYA LEBAR MRT STATION EXIT A,,NIL,PAYA LEBAR MRT STATION EXIT A,PAYA LEBAR MRT STATION EXIT A,NIL,34618.77416,33391.49066,1.318254585,103.8927917,103.8927917
2,PAYA LEBAR MRT STATION EXIT B,,NIL,PAYA LEBAR MRT STATION EXIT B,PAYA LEBAR MRT STATION EXIT B,NIL,34553.83532,33404.28569,1.318370313,103.8922082,103.8922082
3,PAYA LEBAR MRT STATION EXIT D,,NIL,PAYA LEBAR MRT STATION EXIT D,PAYA LEBAR MRT STATION EXIT D,NIL,34539.588789999994,33206.73988,1.316583783,103.8920801,103.8920801
4,PAYA LEBAR MRT STATION (CC9),15,PAYA LEBAR ROAD,PAYA LEBAR MRT STATION (CC9),15 PAYA LEBAR ROAD PAYA LEBAR MRT STATION SINGAPORE 409049,409049,34559.69169,33280.11819,1.317247385,103.8922608,103.8922608
5,PAYA LEBAR MRT STATION (EW8),30,PAYA LEBAR ROAD,PAYA LEBAR MRT STATION (EW8),30 PAYA LEBAR ROAD PAYA LEBAR MRT STATION SINGAPORE 409006,409006,34648.72363,33375.668860000005,1.318111492,103.8930608,103.8930608
6,DBS PAYA LEBAR MRT STATION CIRCLE LINE,15,PAYA LEBAR ROAD,DBS PAYA LEBAR MRT STATION CIRCLE LINE,15 PAYA LEBAR ROAD DBS PAYA LEBAR MRT STATION CIRCLE LINE SINGAPORE 409049,409049,34571.2803,33274.78149,1.31719912,103.8923649,103.8923649
7,OCBC PAYA LEBAR MRT STATION - CIRCLE LINE,15,PAYA LEBAR ROAD,OCBC PAYA LEBAR MRT STATION - CIRCLE LINE,15 PAYA LEBAR ROAD OCBC PAYA LEBAR MRT STATION - CIRCLE LINE SINGAPORE 409049,409049,34573.5024,33263.3016,1.317095299,103.8923848,103.8923848
8,DBS PAYA LEBAR MRT STATION,30,PAYA LEBAR ROAD,DBS PAYA LEBAR MRT STATION,30 PAYA LEBAR ROAD DBS PAYA LEBAR MRT STATION SINGAPORE 409006,409006,34659.62601,33375.1247,1.318106569,103.8931587,103.8931587
9,OCBC PAYA LEBAR MRT STATION,30,PAYA LEBAR ROAD,OCBC PAYA LEBAR MRT STATION,30 PAYA LEBAR ROAD OCBC PAYA LEBAR MRT STATION SINGAPORE 409006,409006,34657.971710000005,33378.43329,1.318136491,103.8931439,103.8931439
0,SIMEI MRT STATION EXIT A,,NIL,SIMEI MRT STATION EXIT A,SIMEI MRT STATION EXIT A,NIL,41410.52446,36089.90172,1.342655786,103.95382009999999,103.95382009999999
1,SIMEI MRT STATION (EW3),30,SIMEI STREET 3,SIMEI MRT STATION (EW3),30 SIMEI STREET 3 SIMEI MRT STATION SINGAPORE 529888,529888,41361.22817,36149.75278,1.343197079,103.9533772,103.9533772
2,DBS SIMEI MRT STATION,30,SIMEI STREET 3,DBS SIMEI MRT STATION,30 SIMEI STREET 3 DBS SIMEI MRT STATION SINGAPORE 529888,529888,41353.6935,36147.80824,1.3431794959999999,103.9533095,103.9533095
3,OCBC SIMEI MRT STATION,30,SIMEI STREET 3,OCBC SIMEI MRT STATION,30 SIMEI STREET 3 OCBC SIMEI MRT STATION SINGAPORE 529888,529888,41357.92684,36145.691569999995,1.343160352,103.95334749999999,103.95334749999999
4,UOB SIMEI MRT STATION,30,SIMEI STREET 3,UOB SIMEI MRT STATION,30 SIMEI STREET 3 UOB SIMEI MRT STATION SINGAPORE 529888,529888,41369.03937,36153.099930000004,1.343227345,103.9534474,103.9534474
0,TAMPINES MRT STATION EXIT D,,NIL,TAMPINES MRT STATION EXIT D,TAMPINES MRT STATION EXIT D,NIL,40280.353930000005,37441.61696,1.3548806780000002,103.94366550000001,103.94366550000001
1,TAMPINES MRT STATION EXIT C,,NIL,TAMPINES MRT STATION EXIT C,TAMPINES MRT STATION EXIT C,NIL,40418.193360000005,37277.71062,1.353398313,103.94490400000001,103.94490400000001
2,TAMPINES MRT STATION EXIT E,,NIL,TAMPINES MRT STATION EXIT E,TAMPINES MRT STATION EXIT E,NIL,40167.72443,37550.48932,1.355865325,103.94265340000001,103.94265340000001
3,TAMPINES MRT STATION EXIT A,,NIL,TAMPINES MRT STATION EXIT A,TAMPINES MRT STATION EXIT A,NIL,40402.8731,37318.14723,1.3537640130000002,103.9447663,103.9447663
4,TAMPINES MRT STATION EXIT B,,NIL,TAMPINES MRT STATION EXIT B,TAMPINES MRT STATION EXIT B,NIL,40438.84851,37293.27708,1.353539082,103.94508959999999,103.94508959999999
5,TAMPINES MRT STATION EXIT F,,NIL,TAMPINES MRT STATION EXIT F,TAMPINES MRT STATION EXIT F,NIL,40168.099330000005,37365.43862,1.354191795,103.9426567,103.9426567
6,TAMPINES MRT STATION EXIT G,,NIL,TAMPINES MRT STATION EXIT G,TAMPINES MRT STATION EXIT G,NIL,40174.57011,37410.4423,1.354598789,103.94271490000001,103.94271490000001
7,TAMPINES MRT STATION (DT32),15,TAMPINES CENTRAL 1,TAMPINES MRT STATION (DT32),15 TAMPINES CENTRAL 1 TAMPINES MRT STATION SINGAPORE 529544,529544,40207.39523,37471.43946,1.3551504109999999,103.9430099,103.9430099
8,TAMPINES MRT STATION (EW2),20,TAMPINES CENTRAL 1,TAMPINES MRT STATION (EW2),20 TAMPINES CENTRAL 1 TAMPINES MRT STATION SINGAPORE 529538,529538,40444.9732,37267.02627,1.3533016759999998,103.9451446,103.9451446
9,DBS TAMPINES MRT STATION,20,TAMPINES CENTRAL 1,DBS TAMPINES MRT STATION,20 TAMPINES CENTRAL 1 DBS TAMPINES MRT STATION SINGAPORE 529538,529538,40470.839889999996,37255.182010000004,1.3531945509999999,103.94537700000001,103.94537700000001
0,ADMIRALTY MRT STATION EXIT D,,NIL,ADMIRALTY MRT STATION EXIT D,ADMIRALTY MRT STATION EXIT D,NIL,24444.00859,46912.40535,1.4405333880000002,103.8013645,103.8013645
1,ADMIRALTY MRT STATION EXIT B,,NIL,ADMIRALTY MRT STATION EXIT B,ADMIRALTY MRT STATION EXIT B,NIL,24350.82388,46871.39375,1.4401624819999999,103.8005272,103.8005272
2,ADMIRALTY MRT STATION EXIT A,,NIL,ADMIRALTY MRT STATION EXIT A,ADMIRALTY MRT STATION EXIT A,NIL,24401.6786,46891.39492,1.4403433719999998,103.8009842,103.8009842
3,ADMIRALTY MRT STATION EXIT C,,NIL,ADMIRALTY MRT STATION EXIT C,ADMIRALTY MRT STATION EXIT C,NIL,24353.52771,46920.36641,1.4406053730000001,103.8005515,103.8005515
4,ADMIRALTY MRT STATION (NS10),70,WOODLANDS AVENUE 7,ADMIRALTY MRT STATION (NS10),70 WOODLANDS AVENUE 7 ADMIRALTY MRT STATION SINGAPORE 738344,738344,24402.38445,46918.5022,1.44058852,103.8009905,103.8009905
5,DBS ADMIRALTY MRT STATION,70,WOODLANDS AVENUE 7,DBS ADMIRALTY MRT STATION,70 WOODLANDS AVENUE 7 DBS ADMIRALTY MRT STATION SINGAPORE 738344,738344,24408.92609,46916.42449,1.4405697309999999,103.8010493,103.8010493
6,UOB ADMIRALTY MRT STATION,70,WOODLANDS AVENUE 7,UOB ADMIRALTY MRT STATION,70 WOODLANDS AVENUE 7 UOB ADMIRALTY MRT STATION SINGAPORE 738344,738344,24408.92609,46916.42449,1.4405697309999999,103.8010493,103.8010493
0,YISHUN MRT STATION EXIT C,,NIL,YISHUN MRT STATION EXIT C,YISHUN MRT STATION EXIT C,NIL,28200.87696,45648.94761,1.4291073580000002,103.83512359999999,103.83512359999999
1,YISHUN MRT STATION EXIT E,,NIL,YISHUN MRT STATION EXIT E,YISHUN MRT STATION EXIT E,NIL,28258.74632,45710.67493,1.4296655969999998,103.8356437,103.8356437
2,YISHUN MRT STATION EXIT D,,NIL,YISHUN MRT STATION EXIT D,YISHUN MRT STATION EXIT D,NIL,28172.17819,45648.58058,1.429104039,103.83486579999999,103.83486579999999
3,YISHUN MRT STATION EXIT A,,NIL,YISHUN MRT STATION EXIT A,YISHUN MRT STATION EXIT A,NIL,28163.81732,45681.466810000005,1.42940145,103.83479059999999,103.83479059999999
4,YISHUN MRT STATION EXIT B,,NIL,YISHUN MRT STATION EXIT B,YISHUN MRT STATION EXIT B,NIL,28172.324780000003,45708.52336,1.42964614,103.8348671,103.8348671
5,YISHUN MRT STATION (NS13),301,YISHUN AVENUE 2,YISHUN MRT STATION (NS13),301 YISHUN AVENUE 2 YISHUN MRT STATION SINGAPORE 769093,769093,28187.678819999997,45686.07054,1.429443085,103.83500500000001,103.83500500000001
6,UOB YISHUN MRT STATION,301,YISHUN AVENUE 2,UOB YISHUN MRT STATION,301 YISHUN AVENUE 2 UOB YISHUN MRT STATION SINGAPORE 769093,769093,28193.602110000003,45686.37161,1.429445808,103.8350583,103.8350583
7,DBS YISHUN MRT STATION,301,YISHUN AVENUE 2,DBS YISHUN MRT STATION,301 YISHUN AVENUE 2 DBS YISHUN MRT STATION SINGAPORE 769093,769093,28186.576489999996,45695.1536,1.429525229,103.83499509999999,103.83499509999999
8,OCBC YISHUN MRT STATION,301,YISHUN AVENUE 2,OCBC YISHUN MRT STATION,301 YISHUN AVENUE 2 OCBC YISHUN MRT STATION SINGAPORE 769093,769093,28192.72391,45702.179189999995,1.429588766,103.83505040000001,103.83505040000001
9,DBS NTUC YISHUN MRT STATION,301,YISHUN AVENUE 2,DBS NTUC YISHUN MRT STATION,301 YISHUN AVENUE 2 DBS NTUC YISHUN MRT STATION SINGAPORE 769093,769093,28186.576489999996,45695.1536,1.429525229,103.83499509999999,103.83499509999999
0,PASIR RIS MRT STATION EXIT A,,NIL,PASIR RIS MRT STATION EXIT A,PASIR RIS MRT STATION EXIT A,NIL,40911.0404,39427.71863,1.372841969,103.9493334,103.9493334
1,PASIR RIS MRT STATION EXIT B,,NIL,PASIR RIS MRT STATION EXIT B,PASIR RIS MRT STATION EXIT B,NIL,40889.173630000005,39432.61242,1.372886237,103.94913690000001,103.94913690000001
2,PASIR RIS MRT STATION (EW1),10,PASIR RIS CENTRAL,PASIR RIS MRT STATION (EW1),10 PASIR RIS CENTRAL PASIR RIS MRT STATION SINGAPORE 519634,519634,40905.597460000005,39449.982339999995,1.373043316,103.94928449999999,103.94928449999999
3,OCBC PASIR RIS MRT STATION,10,PASIR RIS CENTRAL,OCBC PASIR RIS MRT STATION,10 PASIR RIS CENTRAL OCBC PASIR RIS MRT STATION SINGAPORE 519634,519634,40903.433789999995,39446.0827,1.37300805,103.94926509999999,103.94926509999999
4,DBS PASIR RIS MRT STATION,10,PASIR RIS CENTRAL,DBS PASIR RIS MRT STATION,10 PASIR RIS CENTRAL DBS PASIR RIS MRT STATION SINGAPORE 519634,519634,40903.433789999995,39446.0827,1.37300805,103.94926509999999,103.94926509999999
5,UOB PASIR RIS MRT STATION,10,PASIR RIS CENTRAL,UOB PASIR RIS MRT STATION,10 PASIR RIS CENTRAL UOB PASIR RIS MRT STATION SINGAPORE 519634,519634,40903.433789999995,39446.0827,1.37300805,103.94926509999999,103.94926509999999
0,CLEMENTI MRT STATION EXIT C,,NIL,CLEMENTI MRT STATION EXIT C,CLEMENTI MRT STATION EXIT C,NIL,20482.894819999998,32939.81943,1.314169625,103.76577359999999,103.76577359999999
1,CLEMENTI MRT STATION EXIT A,,NIL,CLEMENTI MRT STATION EXIT A,CLEMENTI MRT STATION EXIT A,NIL,20394.871919999998,33076.49432,1.315405642,103.7649827,103.7649827
2,CLEMENTI MRT STATION EXIT B,,NIL,CLEMENTI MRT STATION EXIT B,CLEMENTI MRT STATION EXIT B,NIL,20414.10284,33082.94455,1.315463981,103.7651555,103.7651555
3,CLEMENTI MRT STATION EXIT D,,NIL,CLEMENTI MRT STATION EXIT D,CLEMENTI MRT STATION EXIT D,NIL,20457.04914,32928.32737,1.314065689,103.7655414,103.7655414
4,CLEMENTI MRT STATION (EW23),3150,COMMONWEALTH AVENUE WEST,CLEMENTI MRT STATION (EW23),3150 COMMONWEALTH AVENUE WEST CLEMENTI MRT STATION SINGAPORE 129580,129580,20418.105509999998,33044.49447,1.315116253,103.7651915,103.7651915
5,DBS CLEMENTI MRT STATION,3150,COMMONWEALTH AVENUE WEST,DBS CLEMENTI MRT STATION,3150 COMMONWEALTH AVENUE WEST DBS CLEMENTI MRT STATION SINGAPORE 129580,129580,20415.55719,33056.5417,1.315225203,103.7651686,103.7651686
6,UOB CLEMENTI MRT STATION,3150,COMMONWEALTH AVENUE WEST,UOB CLEMENTI MRT STATION,3150 COMMONWEALTH AVENUE WEST UOB CLEMENTI MRT STATION SINGAPORE 129580,129580,20415.55719,33056.5417,1.315225203,103.7651686,103.7651686
7,OCBC CLEMENTI MRT STATION,3150,COMMONWEALTH AVENUE WEST,OCBC CLEMENTI MRT STATION,3150 COMMONWEALTH AVENUE WEST OCBC CLEMENTI MRT STATION SINGAPORE 129580,129580,20417.10349,33053.89461,1.3152012640000001,103.7651824,103.7651824
0,ALJUNIED MRT STATION EXIT A,,NIL,ALJUNIED MRT STATION EXIT A,ALJUNIED MRT STATION EXIT A,NIL,33473.04374,33168.53557,1.316238485,103.8824967,103.8824967
1,ALJUNIED MRT STATION EXIT B,,NIL,ALJUNIED MRT STATION EXIT B,ALJUNIED MRT STATION EXIT B,NIL,33470.39863,33196.11794,1.316487931,103.88247290000001,103.88247290000001
2,ALJUNIED MRT STATION (EW9),81,LORONG 25 GEYLANG,ALJUNIED MRT STATION (EW9),81 LORONG 25 GEYLANG ALJUNIED MRT STATION SINGAPORE 388310,388310,33518.604869999996,33190.00202,1.316432612,103.882906,103.882906
3,UOB ALJUNIED MRT STATION,81,LORONG 25 GEYLANG,UOB ALJUNIED MRT STATION,81 LORONG 25 GEYLANG UOB ALJUNIED MRT STATION SINGAPORE 388310,388310,33525.058489999996,33190.950489999996,1.316441188,103.882964,103.882964
4,DBS ALJUNIED MRT STATION,81,LORONG 25 GEYLANG,DBS ALJUNIED MRT STATION,81 LORONG 25 GEYLANG DBS ALJUNIED MRT STATION SINGAPORE 388310,388310,33525.058489999996,33190.950489999996,1.316441188,103.882964,103.882964
0,ANG MO KIO MRT STATION,2795,ANG MO KIO AVENUE 8,ANG MO KIO MRT STATION,2795 ANG MO KIO AVENUE 8 ANG MO KIO MRT STATION SINGAPORE 569812,569812,29807.261089999996,39105.736000000004,1.36993285,103.8495581,103.8495581
0,EXPO MRT STATION EXIT F,,NIL,EXPO MRT STATION EXIT F,EXPO MRT STATION EXIT F,NIL,42416.88643,35211.81649,1.33471425,103.9628625,103.9628625
1,EXPO MRT STATION EXIT B,,NIL,EXPO MRT STATION EXIT B,EXPO MRT STATION EXIT B,NIL,42328.7065,35272.68625,1.335264775,103.9620702,103.9620702
2,EXPO MRT STATION EXIT G,,NIL,EXPO MRT STATION EXIT G,EXPO MRT STATION EXIT G,NIL,42437.80242,35247.01525,1.335032564,103.96305040000001,103.96305040000001
3,EXPO MRT STATION EXIT C,,NIL,EXPO MRT STATION EXIT C,EXPO MRT STATION EXIT C,NIL,42338.94818,35349.4168,1.335958692,103.9621622,103.9621622
4,EXPO MRT STATION EXIT E,,NIL,EXPO MRT STATION EXIT E,EXPO MRT STATION EXIT E,NIL,42335.05651,35229.162189999995,1.334871157,103.9621272,103.9621272
5,EXPO MRT STATION EXIT A,,NIL,EXPO MRT STATION EXIT A,EXPO MRT STATION EXIT A,NIL,42302.22625,35297.8213,1.335492099,103.9618322,103.9618322
6,EXPO MRT STATION EXIT D,,NIL,EXPO MRT STATION EXIT D,EXPO MRT STATION EXIT D,NIL,42442.69839,35226.03515,1.334842826,103.9630944,103.9630944
7,EXPO MRT STATION (DT35),2,EXPO DRIVE,EXPO MRT STATION (DT35),2 EXPO DRIVE EXPO MRT STATION SINGAPORE 485985,485985,42362.603460000006,35285.70839,1.3353825259999998,103.9623747,103.9623747
8,EXPO MRT STATION (CG1),21,CHANGI SOUTH AVENUE 1,EXPO MRT STATION (CG1),21 CHANGI SOUTH AVENUE 1 EXPO MRT STATION SINGAPORE 486065,486065,42270.623230000005,35193.62235,1.334549778,103.96154820000001,103.96154820000001
0,CHOA CHU KANG MRT STATION EXIT D,,NIL,CHOA CHU KANG MRT STATION EXIT D,CHOA CHU KANG MRT STATION EXIT D,NIL,18116.668169999997,40855.614089999995,1.385756501,103.7445093,103.7445093
1,CHOA CHU KANG MRT STATION EXIT B,,NIL,CHOA CHU KANG MRT STATION EXIT B,CHOA CHU KANG MRT STATION EXIT B,NIL,18125.85386,40768.61238,1.3849696919999999,103.74459190000002,103.74459190000002
2,CHOA CHU KANG MRT STATION EXIT C,,NIL,CHOA CHU KANG MRT STATION EXIT C,CHOA CHU KANG MRT STATION EXIT C,NIL,18082.58027,40850.56258,1.385710805,103.744203,103.744203
3,CHOA CHU KANG MRT STATION EXIT A,,NIL,CHOA CHU KANG MRT STATION EXIT A,CHOA CHU KANG MRT STATION EXIT A,NIL,18121.86034,40819.09102,1.385426201,103.744556,103.744556
4,CHOA CHU KANG MRT STATION (NS4),10,CHOA CHU KANG AVENUE 4,CHOA CHU KANG MRT STATION (NS4),10 CHOA CHU KANG AVENUE 4 CHOA CHU KANG MRT STATION SINGAPORE 689810,689810,18101.2472,40812.12161,1.385363165,103.7443708,103.7443708
5,OCBC CHOA CHU KANG MRT STATION,25,ALJUNIED ROAD,OCBC CHOA CHU KANG MRT STATION,25 ALJUNIED ROAD OCBC CHOA CHU KANG MRT STATION SINGAPORE 389810,389810,33390.227999999996,32945.527910000004,1.3142216979999999,103.8817525,103.8817525
6,UOB CHOA CHU KANG MRT STATION AUTOLOBBY,10,CHOA CHU KANG AVENUE 4,UOB CHOA CHU KANG MRT STATION AUTOLOBBY,10 CHOA CHU KANG AVENUE 4 UOB CHOA CHU KANG MRT STATION AUTOLOBBY SINGAPORE 689810,689810,18101.2472,40812.12161,1.385363165,103.7443708,103.7443708
0,JURONG EAST MRT STATION EXIT B,,NIL,JURONG EAST MRT STATION EXIT B,JURONG EAST MRT STATION EXIT B,NIL,17908.76026,34970.1172,1.33253016,103.7426431,103.7426431
1,JURONG EAST MRT STATION EXIT A,,NIL,JURONG EAST MRT STATION EXIT A,JURONG EAST MRT STATION EXIT A,NIL,17807.71617,35133.60063,1.33400861,103.74173509999999,103.74173509999999
2,JURONG EAST MRT STATION EXIT C,,NIL,JURONG EAST MRT STATION EXIT C,JURONG EAST MRT STATION EXIT C,NIL,17921.057780000003,34994.8034,1.332753417,103.7427536,103.7427536
3,JURONG EAST MRT STATION EXIT D,,NIL,JURONG EAST MRT STATION EXIT D,JURONG EAST MRT STATION EXIT D,NIL,17869.72852,35085.82026,1.333576523,103.74229240000001,103.74229240000001
4,JURONG EAST MRT STATION (EW24 / NS1),10,JURONG EAST STREET 12,JURONG EAST MRT STATION (EW24 / NS1),10 JURONG EAST STREET 12 JURONG EAST MRT STATION SINGAPORE 609690,609690,17869.05705,35038.96887,1.333152816,103.7422863,103.7422863
5,DBS JURONG EAST MRT STATION,10,JURONG EAST STREET 12,DBS JURONG EAST MRT STATION,10 JURONG EAST STREET 12 DBS JURONG EAST MRT STATION SINGAPORE 609690,609690,17854.31751,35054.69869,1.333295066,103.7421539,103.7421539
6,OCBC JURONG EAST MRT STATION,10,JURONG EAST STREET 12,OCBC JURONG EAST MRT STATION,10 JURONG EAST STREET 12 OCBC JURONG EAST MRT STATION SINGAPORE 609690,609690,17869.0806,35038.9472,1.33315262,103.7422865,103.7422865
7,UOB JURONG EAST MRT STATION,10,JURONG EAST STREET 12,UOB JURONG EAST MRT STATION,10 JURONG EAST STREET 12 UOB JURONG EAST MRT STATION SINGAPORE 609690,609690,17854.31751,35054.69869,1.333295066,103.7421539,103.7421539
0,QUEENSTOWN MRT STATION EXIT B,,NIL,QUEENSTOWN MRT STATION EXIT B,QUEENSTOWN MRT STATION EXIT B,NIL,24999.4236,30750.719680000002,1.2943729529999999,103.8063571,103.8063571
1,QUEENSTOWN MRT STATION EXIT C,,NIL,QUEENSTOWN MRT STATION EXIT C,QUEENSTOWN MRT STATION EXIT C,NIL,24914.09531,30870.57617,1.295456885,103.80559040000001,103.80559040000001
2,QUEENSTOWN MRT STATION EXIT D,,NIL,QUEENSTOWN MRT STATION EXIT D,QUEENSTOWN MRT STATION EXIT D,NIL,24901.46866,30862.174810000004,1.295380905,103.8054769,103.8054769
3,QUEENSTOWN MRT STATION EXIT A,,NIL,QUEENSTOWN MRT STATION EXIT A,QUEENSTOWN MRT STATION EXIT A,NIL,24979.65319,30737.158919999998,1.294250313,103.8061795,103.8061795
4,QUEENSTOWN MRT STATION (EW19),301,COMMONWEALTH AVENUE,QUEENSTOWN MRT STATION (EW19),301 COMMONWEALTH AVENUE QUEENSTOWN MRT STATION SINGAPORE 149729,149729,24968.26735,30770.391110000004,1.294550852,103.8060772,103.8060772
5,OCBC QUEENSTOWN MRT STATION,301,COMMONWEALTH AVENUE,OCBC QUEENSTOWN MRT STATION,301 COMMONWEALTH AVENUE OCBC QUEENSTOWN MRT STATION SINGAPORE 149729,149729,24977.31741,30757.477310000002,1.294434065,103.8061585,103.8061585
6,DBS QUEENSTOWN MRT STATION,301,COMMONWEALTH AVENUE,DBS QUEENSTOWN MRT STATION,301 COMMONWEALTH AVENUE DBS QUEENSTOWN MRT STATION SINGAPORE 149729,149729,24970.8999,30730.890489999998,1.294193622,103.8061008,103.8061008
7,UOB QUEENSTOWN MRT STATION,301,COMMONWEALTH AVENUE,UOB QUEENSTOWN MRT STATION,301 COMMONWEALTH AVENUE UOB QUEENSTOWN MRT STATION SINGAPORE 149729,149729,24964.4824,30771.229110000004,1.29455843,103.8060431,103.8060431
0,TUAS LINK MRT STATION EXIT A,,NIL,TUAS LINK MRT STATION EXIT A,TUAS LINK MRT STATION EXIT A,NIL,6179.601028,35855.574160000004,1.340531698,103.6372497,103.6372497
1,TUAS LINK MRT STATION EXIT B,,NIL,TUAS LINK MRT STATION EXIT B,TUAS LINK MRT STATION EXIT B,NIL,6114.5133909999995,35845.25538,1.340438332,103.63666479999999,103.63666479999999
2,TUAS LINK MRT STATION (EW33),20,TUAS WEST DRIVE,TUAS LINK MRT STATION (EW33),20 TUAS WEST DRIVE TUAS LINK MRT STATION SINGAPORE 638418,638418,6150.862788,35894.35822,1.340882425,103.63699140000001,103.63699140000001
0,GUL CIRCLE MRT STATION EXIT B,,NIL,GUL CIRCLE MRT STATION EXIT B,GUL CIRCLE MRT STATION EXIT B,NIL,8652.997534,33461.944260000004,1.318886347,103.659476,103.659476
1,GUL CIRCLE MRT STATION EXIT A,,NIL,GUL CIRCLE MRT STATION EXIT A,GUL CIRCLE MRT STATION EXIT A,NIL,8799.418088,33505.30554,1.3192785809999998,103.6607917,103.6607917
2,GUL CIRCLE MRT STATION (EW30),7A,TUAS ROAD,GUL CIRCLE MRT STATION (EW30),7A TUAS ROAD GUL CIRCLE MRT STATION SINGAPORE 637288,637288,8770.351501000001,33526.57337,1.3194709009999999,103.66053050000001,103.66053050000001
0,WOODLANDS MRT STATION EXIT 4,,NIL,WOODLANDS MRT STATION EXIT 4,WOODLANDS MRT STATION EXIT 4,NIL,22843.538819999998,46509.57015,1.436890045,103.7869828,103.7869828
1,WOODLANDS MRT STATION EXIT 6,,NIL,WOODLANDS MRT STATION EXIT 6,WOODLANDS MRT STATION EXIT 6,NIL,23078.091419999997,46278.62274,1.4348014830000002,103.7890906,103.7890906
2,WOODLANDS MRT STATION EXIT 1,,NIL,WOODLANDS MRT STATION EXIT 1,WOODLANDS MRT STATION EXIT 1,NIL,22716.83093,46477.10646,1.436596431,103.7858442,103.7858442
3,WOODLANDS MRT STATION EXIT 2,,NIL,WOODLANDS MRT STATION EXIT 2,WOODLANDS MRT STATION EXIT 2,NIL,22777.97649,46494.39463,1.436752791,103.7863937,103.7863937
4,WOODLANDS MRT STATION EXIT 3,,NIL,WOODLANDS MRT STATION EXIT 3,WOODLANDS MRT STATION EXIT 3,NIL,22870.47754,46532.16714,1.437094408,103.78722490000001,103.78722490000001
5,WOODLANDS MRT STATION EXIT 5,,NIL,WOODLANDS MRT STATION EXIT 5,WOODLANDS MRT STATION EXIT 5,NIL,23066.69577,46409.69267,1.435986829,103.7889881,103.7889881
6,WOODLANDS MRT STATION EXIT 7,,NIL,WOODLANDS MRT STATION EXIT 7,WOODLANDS MRT STATION EXIT 7,NIL,22956.37078,46239.35569,1.4344463440000002,103.7879968,103.7879968
7,WOODLANDS MRT STATION (TE2),11,WOODLANDS SQUARE,WOODLANDS MRT STATION (TE2),11 WOODLANDS SQUARE WOODLANDS MRT STATION SINGAPORE 737736,737736,22949.919130000002,46417.52233,1.436057617,103.78793879999999,103.78793879999999
8,WOODLANDS MRT STATION (NS9),30,WOODLANDS AVENUE 2,WOODLANDS MRT STATION (NS9),30 WOODLANDS AVENUE 2 WOODLANDS MRT STATION SINGAPORE 738343,738343,22741.59819,46501.7861,1.43681963,103.7860668,103.7860668
9,OCBC WOODLANDS MRT STATION,30,WOODLANDS AVENUE 2,OCBC WOODLANDS MRT STATION,30 WOODLANDS AVENUE 2 OCBC WOODLANDS MRT STATION SINGAPORE 738343,738343,22822.63851,46521.66929,1.4369994609999999,103.786795,103.786795
0,TUAS CRESCENT MRT STATION EXIT B,,NIL,TUAS CRESCENT MRT STATION EXIT B,TUAS CRESCENT MRT STATION EXIT B,NIL,7526.560143000001,33712.70267,1.321153373,103.6493543,103.6493543
1,TUAS CRESCENT MRT STATION EXIT A,,NIL,TUAS CRESCENT MRT STATION EXIT A,TUAS CRESCENT MRT STATION EXIT A,NIL,7487.930901000001,33668.78174,1.320756144,103.6490072,103.6490072
2,TUAS CRESCENT MRT STATION (EW31),90,PIONEER ROAD,TUAS CRESCENT MRT STATION (EW31),90 PIONEER ROAD TUAS CRESCENT MRT STATION SINGAPORE 639608,639608,7495.837867,33698.726310000005,1.3210269559999999,103.6490782,103.6490782
0,KALLANG MRT STATION EXIT A,,NIL,KALLANG MRT STATION EXIT A,KALLANG MRT STATION EXIT A,NIL,32274.890239999997,32649.033539999997,1.311540483,103.87173059999999,103.87173059999999
1,KALLANG MRT STATION EXIT B,,NIL,KALLANG MRT STATION EXIT B,KALLANG MRT STATION EXIT B,NIL,32258.92088,32675.713560000004,1.31178177,103.8715871,103.8715871
2,KALLANG MRT STATION (EW10),5,SIMS AVENUE,KALLANG MRT STATION (EW10),5 SIMS AVENUE KALLANG MRT STATION SINGAPORE 387405,387405,32236.603839999996,32643.33024,1.31148891,103.8713865,103.8713865
3,UOB KALLANG MRT STATION,5,SIMS AVENUE,UOB KALLANG MRT STATION,5 SIMS AVENUE UOB KALLANG MRT STATION SINGAPORE 387405,387405,32232.23381,32643.15529,1.311487328,103.8713473,103.8713473
0,TUAS WEST ROAD MRT STATION EXIT B,,NIL,TUAS WEST ROAD MRT STATION EXIT B,TUAS WEST ROAD MRT STATION EXIT B,NIL,6464.785093,34708.331739999994,1.3301567090000002,103.639813,103.639813
1,TUAS WEST ROAD MRT STATION EXIT A,,NIL,TUAS WEST ROAD MRT STATION EXIT A,TUAS WEST ROAD MRT STATION EXIT A,NIL,6407.634993,34674.46501,1.329850392,103.63929949999999,103.63929949999999
2,TUAS WEST ROAD MRT STATION (EW32),131,PIONEER ROAD,TUAS WEST ROAD MRT STATION (EW32),131 PIONEER ROAD TUAS WEST ROAD MRT STATION SINGAPORE 639609,639609,6442.928612,34689.35177,1.329985047,103.6396166,103.6396166
0,BUONA VISTA MRT STATION,150,NORTH BUONA VISTA ROAD,BUONA VISTA MRT STATION,150 NORTH BUONA VISTA ROAD BUONA VISTA MRT STATION SINGAPORE 139350,139350,23219.463,32066.850089999996,1.306275348,103.7903632,103.7903632
0,DOVER MRT STATION EXIT B,,NIL,DOVER MRT STATION EXIT B,DOVER MRT STATION EXIT B,NIL,21893.26842,32667.23072,1.311704743,103.7784466,103.7784466
1,DOVER MRT STATION EXIT A,,NIL,DOVER MRT STATION EXIT A,DOVER MRT STATION EXIT A,NIL,21876.32692,32636.468969999998,1.311426541,103.77829440000001,103.77829440000001
2,DOVER MRT STATION (EW22),200,COMMONWEALTH AVENUE WEST,DOVER MRT STATION (EW22),200 COMMONWEALTH AVENUE WEST DOVER MRT STATION SINGAPORE 138677,138677,21914.55093,32634.11863,1.311405293,103.7786378,103.7786378
3,DBS DOVER MRT STATION,200,COMMONWEALTH AVENUE WEST,DBS DOVER MRT STATION,200 COMMONWEALTH AVENUE WEST DBS DOVER MRT STATION SINGAPORE 138677,138677,21916.61421,32632.597510000003,1.311391537,103.7786564,103.7786564
4,UOB DOVER MRT STATION,200,COMMONWEALTH AVENUE WEST,UOB DOVER MRT STATION,200 COMMONWEALTH AVENUE WEST UOB DOVER MRT STATION SINGAPORE 138677,138677,21916.61421,32632.597510000003,1.311391537,103.7786564,103.7786564
5,OCBC DOVER MRT STATION,200,COMMONWEALTH AVENUE WEST,OCBC DOVER MRT STATION,200 COMMONWEALTH AVENUE WEST OCBC DOVER MRT STATION SINGAPORE 138677,138677,21916.61421,32632.597510000003,1.311391537,103.7786564,103.7786564
0,SEMBAWANG MRT STATION EXIT B,,NIL,SEMBAWANG MRT STATION EXIT B,SEMBAWANG MRT STATION EXIT B,NIL,26493.72832,47823.52387,1.4487733980000002,103.8197832,103.8197832
1,SEMBAWANG MRT STATION EXIT A,,NIL,SEMBAWANG MRT STATION EXIT A,SEMBAWANG MRT STATION EXIT A,NIL,26530.12833,47830.404819999996,1.448835628,103.8201103,103.8201103
2,SEMBAWANG MRT STATION EXIT C,,NIL,SEMBAWANG MRT STATION EXIT C,SEMBAWANG MRT STATION EXIT C,NIL,26491.387759999998,47867.55292,1.44917158,103.8197622,103.8197622
3,SEMBAWANG MRT STATION EXIT D,,NIL,SEMBAWANG MRT STATION EXIT D,SEMBAWANG MRT STATION EXIT D,NIL,26562.54083,47840.54468,1.448927331,103.8204016,103.8204016
4,SEMBAWANG MRT STATION (NS11),11,CANBERRA ROAD,SEMBAWANG MRT STATION (NS11),11 CANBERRA ROAD SEMBAWANG MRT STATION SINGAPORE 759775,759775,26522.98826,47854.19984,1.4490508219999998,103.82004609999998,103.82004609999998
5,OCBC SEMBAWANG MRT STATION,11,CANBERRA ROAD,OCBC SEMBAWANG MRT STATION,11 CANBERRA ROAD OCBC SEMBAWANG MRT STATION SINGAPORE 759775,759775,26533.3762,47851.5309,1.449026685,103.8201395,103.8201395
6,DBS SEMBAWANG MRT STATION,11,CANBERRA ROAD,DBS SEMBAWANG MRT STATION,11 CANBERRA ROAD DBS SEMBAWANG MRT STATION SINGAPORE 759775,759775,26533.3762,47851.5309,1.449026685,103.8201395,103.8201395
7,UOB SEMBAWANG MRT STATION,11,CANBERRA ROAD,UOB SEMBAWANG MRT STATION,11 CANBERRA ROAD UOB SEMBAWANG MRT STATION SINGAPORE 759775,759775,26533.3762,47851.5309,1.449026685,103.8201395,103.8201395
8,UOB SEMBAWANG MRT STATION AUTOLOBBY,11,CANBERRA ROAD,UOB SEMBAWANG MRT STATION AUTOLOBBY,11 CANBERRA ROAD UOB SEMBAWANG MRT STATION AUTOLOBBY SINGAPORE 759775,759775,26533.3762,47851.5309,1.449026685,103.8201395,103.8201395
0,KEMBANGAN MRT STATION EXIT B,,NIL,KEMBANGAN MRT STATION EXIT B,KEMBANGAN MRT STATION EXIT B,NIL,36856.54773,33711.94661,1.321152108,103.9128993,103.9128993
1,KEMBANGAN MRT STATION EXIT A,,NIL,KEMBANGAN MRT STATION EXIT A,KEMBANGAN MRT STATION EXIT A,NIL,36861.082089999996,33687.35103,1.320929673,103.91294,103.91294
2,KEMBANGAN MRT STATION (EW6),55,SIMS AVENUE EAST,KEMBANGAN MRT STATION (EW6),55 SIMS AVENUE EAST KEMBANGAN MRT STATION SINGAPORE 416551,416551,36861.961489999994,33699.34405,1.3210381340000001,103.9129479,103.9129479
3,DBS KEMBANGAN MRT STATION,55,SIMS AVENUE EAST,DBS KEMBANGAN MRT STATION,55 SIMS AVENUE EAST DBS KEMBANGAN MRT STATION SINGAPORE 416551,416551,36859.47017,33700.327430000005,1.321047028,103.9129255,103.9129255
4,OCBC KEMBANGAN MRT STATION,55,SIMS AVENUE EAST,OCBC KEMBANGAN MRT STATION,55 SIMS AVENUE EAST OCBC KEMBANGAN MRT STATION SINGAPORE 416551,416551,36859.25847,33701.59741,1.3210585129999999,103.91292359999998,103.91292359999998
5,UOB KEMBANGAN MRT STATION,55,SIMS AVENUE EAST,UOB KEMBANGAN MRT STATION,55 SIMS AVENUE EAST UOB KEMBANGAN MRT STATION SINGAPORE 416551,416551,36861.16348,33702.4441,1.32106617,103.91294079999999,103.91294079999999
0,BUKIT BATOK MRT STATION EXIT A,,NIL,BUKIT BATOK MRT STATION EXIT A,BUKIT BATOK MRT STATION EXIT A,NIL,18724.248059999998,36853.29795,1.34956122,103.74997009999998,103.74997009999998
1,BUKIT BATOK MRT STATION EXIT B,,NIL,BUKIT BATOK MRT STATION EXIT B,BUKIT BATOK MRT STATION EXIT B,NIL,18723.803480000002,36831.121439999995,1.349360664,103.7499662,103.7499662
2,BUKIT BATOK MRT STATION EXIT C,,NIL,BUKIT BATOK MRT STATION EXIT C,BUKIT BATOK MRT STATION EXIT C,NIL,18701.8848,36847.908039999995,1.349512469,103.7497692,103.7497692
3,BUKIT BATOK MRT STATION EXIT D,,NIL,BUKIT BATOK MRT STATION EXIT D,BUKIT BATOK MRT STATION EXIT D,NIL,18630.33988,36727.52833,1.3484237769999998,103.74912640000001,103.74912640000001
4,BUKIT BATOK MRT STATION (NS2),10,BUKIT BATOK CENTRAL,BUKIT BATOK MRT STATION (NS2),10 BUKIT BATOK CENTRAL BUKIT BATOK MRT STATION SINGAPORE 659958,659958,18679.32232,36794.92602,1.349033312,103.7495665,103.7495665
5,DBS BUKIT BATOK MRT STATION,10,BUKIT BATOK CENTRAL,DBS BUKIT BATOK MRT STATION,10 BUKIT BATOK CENTRAL DBS BUKIT BATOK MRT STATION SINGAPORE 659958,659958,18653.506390000002,36759.26631,1.348710811,103.7493345,103.7493345
6,DBS NTUC BUKIT BATOK MRT STATION,10,BUKIT BATOK CENTRAL,DBS NTUC BUKIT BATOK MRT STATION,10 BUKIT BATOK CENTRAL DBS NTUC BUKIT BATOK MRT STATION SINGAPORE 659958,659958,18653.506390000002,36759.26631,1.348710811,103.7493345,103.7493345
7,UOB BUKIT BATOK MRT STATION,10,BUKIT BATOK CENTRAL,UOB BUKIT BATOK MRT STATION,10 BUKIT BATOK CENTRAL UOB BUKIT BATOK MRT STATION SINGAPORE 659958,659958,18679.3541,36795.0141,1.349034109,103.7495668,103.7495668
8,OCBC BUKIT BATOK MRT STATION - FAIRPRICE,10,BUKIT BATOK CENTRAL,OCBC BUKIT BATOK MRT STATION - FAIRPRICE,10 BUKIT BATOK CENTRAL OCBC BUKIT BATOK MRT STATION - FAIRPRICE SINGAPORE 659958,659958,18671.06046,36783.7548,1.348932281,103.7494922,103.7494922
0,BOON LAY MRT STATION EXIT B,,NIL,BOON LAY MRT STATION EXIT B,BOON LAY MRT STATION EXIT B,NIL,13846.987809999999,35621.64372,1.338420696,103.70614549999999,103.70614549999999
1,BOON LAY MRT STATION EXIT C,,NIL,BOON LAY MRT STATION EXIT C,BOON LAY MRT STATION EXIT C,NIL,13825.831,35658.43727,1.338753433,103.7059554,103.7059554
2,BOON LAY MRT STATION EXIT A,,NIL,BOON LAY MRT STATION EXIT A,BOON LAY MRT STATION EXIT A,NIL,13764.6219,35606.56721,1.338284311,103.70540550000001,103.70540550000001
3,BOON LAY MRT STATION EXIT F,,NIL,BOON LAY MRT STATION EXIT F,BOON LAY MRT STATION EXIT F,NIL,13807.46418,35605.63631,1.338275912,103.70579040000001,103.70579040000001
4,BOON LAY MRT STATION EXIT E,,NIL,BOON LAY MRT STATION EXIT E,BOON LAY MRT STATION EXIT E,NIL,13758.39369,35632.66302,1.338520309,103.7053495,103.7053495
5,BOON LAY MRT STATION EXIT D,,NIL,BOON LAY MRT STATION EXIT D,BOON LAY MRT STATION EXIT D,NIL,13791.038019999998,35644.9343,1.338631301,103.70564279999999,103.70564279999999
6,BOON LAY MRT STATION (EW27),301,BOON LAY WAY,BOON LAY MRT STATION (EW27),301 BOON LAY WAY BOON LAY MRT STATION SINGAPORE 649846,649846,13837.982719999998,35641.91912,1.338604055,103.70606459999999,103.70606459999999
7,DBS BOON LAY MRT STATION,301,BOON LAY WAY,DBS BOON LAY MRT STATION,301 BOON LAY WAY DBS BOON LAY MRT STATION SINGAPORE 649846,649846,13840.2395,35642.61389,1.3386103390000001,103.70608490000001,103.70608490000001
8,OCBC BOON LAY MRT STATION,301,BOON LAY WAY,OCBC BOON LAY MRT STATION,301 BOON LAY WAY OCBC BOON LAY MRT STATION SINGAPORE 649846,649846,13820.919109999999,35633.83191,1.3385309090000002,103.7059113,103.7059113
9,UOB BOON LAY MRT STATION,301,BOON LAY WAY,UOB BOON LAY MRT STATION,301 BOON LAY WAY UOB BOON LAY MRT STATION SINGAPORE 649846,649846,13822.6755,35641.7357,1.338602389,103.7059271,103.7059271
0,BUKIT GOMBAK MRT STATION EXIT C,,NIL,BUKIT GOMBAK MRT STATION EXIT C,BUKIT GOMBAK MRT STATION EXIT C,NIL,18919.759009999998,37904.16959,1.35906498,103.7517266,103.7517266
1,BUKIT GOMBAK MRT STATION EXIT B,,NIL,BUKIT GOMBAK MRT STATION EXIT B,BUKIT GOMBAK MRT STATION EXIT B,NIL,18959.64126,37863.19032,1.35869439,103.752085,103.752085
2,BUKIT GOMBAK MRT STATION EXIT D,,NIL,BUKIT GOMBAK MRT STATION EXIT D,BUKIT GOMBAK MRT STATION EXIT D,NIL,18944.46323,37931.19303,1.359309377,103.75194859999999,103.75194859999999
3,BUKIT GOMBAK MRT STATION EXIT A,,NIL,BUKIT GOMBAK MRT STATION EXIT A,BUKIT GOMBAK MRT STATION EXIT A,NIL,18957.6772,37904.71675,1.35906994,103.7520673,103.7520673
4,BUKIT GOMBAK MRT STATION (NS3),802,BUKIT BATOK WEST AVENUE 5,BUKIT GOMBAK MRT STATION (NS3),802 BUKIT BATOK WEST AVENUE 5 BUKIT GOMBAK MRT STATION SINGAPORE 659083,659083,18926.9127,37854.03588,1.3586115909999998,103.7517909,103.7517909
5,UOB BUKIT GOMBAK MRT STATION,802,BUKIT BATOK WEST AVENUE 5,UOB BUKIT GOMBAK MRT STATION,802 BUKIT BATOK WEST AVENUE 5 UOB BUKIT GOMBAK MRT STATION SINGAPORE 659083,659083,18939.75871,37861.9934,1.35868356,103.7519063,103.7519063
6,DBS BUKIT GOMBAK MRT STATION,802,BUKIT BATOK WEST AVENUE 5,DBS BUKIT GOMBAK MRT STATION,802 BUKIT BATOK WEST AVENUE 5 DBS BUKIT GOMBAK MRT STATION SINGAPORE 659083,659083,18937.2546,37865.156189999994,1.3587121619999998,103.7518838,103.7518838
7,OCBC BUKIT GOMBAK MRT STATION,802,BUKIT BATOK WEST AVENUE 5,OCBC BUKIT GOMBAK MRT STATION,802 BUKIT BATOK WEST AVENUE 5 OCBC BUKIT GOMBAK MRT STATION SINGAPORE 659083,659083,18940.53581,37859.68919,1.358662721,103.7519133,103.7519133
0,MARSILING MRT STATION EXIT A,,NIL,MARSILING MRT STATION EXIT A,MARSILING MRT STATION EXIT A,NIL,21421.74266,46058.22242,1.432807925,103.77420670000001,103.77420670000001
1,MARSILING MRT STATION EXIT B,,NIL,MARSILING MRT STATION EXIT B,MARSILING MRT STATION EXIT B,NIL,21443.75569,46052.60783,1.432757153,103.7744045,103.7744045
2,MARSILING MRT STATION EXIT C,,NIL,MARSILING MRT STATION EXIT C,MARSILING MRT STATION EXIT C,NIL,21378.84085,46020.0413,1.4324626180000002,103.7738212,103.7738212
3,MARSILING MRT STATION EXIT D,,NIL,MARSILING MRT STATION EXIT D,MARSILING MRT STATION EXIT D,NIL,21396.701259999998,46052.61749,1.43275723,103.77398170000001,103.77398170000001
4,MARSILING MRT STATION (NS8),71,WOODLANDS AVENUE 3,MARSILING MRT STATION (NS8),71 WOODLANDS AVENUE 3 MARSILING MRT STATION SINGAPORE 739044,739044,21407.04132,46026.51253,1.432521149,103.77407459999999,103.77407459999999
5,DBS MARSILING MRT STATION,71,WOODLANDS AVENUE 3,DBS MARSILING MRT STATION,71 WOODLANDS AVENUE 3 DBS MARSILING MRT STATION SINGAPORE 739044,739044,21404.43261,46038.1104,1.432626035,103.7740512,103.7740512
6,UOB MARSILING MRT STATION,71,WOODLANDS AVENUE 3,UOB MARSILING MRT STATION,71 WOODLANDS AVENUE 3 UOB MARSILING MRT STATION SINGAPORE 739044,739044,21404.43261,46038.1104,1.432626035,103.7740512,103.7740512
7,DBS NTUC MARSILING MRT STATION,71,WOODLANDS AVENUE 3,DBS NTUC MARSILING MRT STATION,71 WOODLANDS AVENUE 3 DBS NTUC MARSILING MRT STATION SINGAPORE 739044,739044,21404.43261,46038.1104,1.432626035,103.7740512,103.7740512
0,BEDOK MRT STATION EXIT A,,NIL,BEDOK MRT STATION EXIT A,BEDOK MRT STATION EXIT A,NIL,38665.87769,33979.21811,1.3235686359999999,103.9291571,103.9291571
1,BEDOK MRT STATION EXIT B,,NIL,BEDOK MRT STATION EXIT B,BEDOK MRT STATION EXIT B,NIL,38723.29451,34056.590430000004,1.324268343,103.92967309999999,103.92967309999999
2,BEDOK MRT STATION EXIT C,,NIL,BEDOK MRT STATION EXIT C,BEDOK MRT STATION EXIT C,NIL,38692.60608,34036.309310000004,1.324084939,103.9293973,103.9293973
3,SUNGEI BEDOK MRT STATION (TE31 / DT37),,NIL,SUNGEI BEDOK MRT STATION (TE31 / DT37),SUNGEI BEDOK MRT STATION,NIL,41784.9899,33629.14833,1.320401487,103.9571838,103.9571838
4,BEDOK MRT STATION (EW5),315,NEW UPPER CHANGI ROAD,BEDOK MRT STATION (EW5),315 NEW UPPER CHANGI ROAD BEDOK MRT STATION SINGAPORE 467347,467347,38757.95205,34024.70478,1.323979969,103.9299845,103.9299845
5,UOB BEDOK MRT STATION,315,NEW UPPER CHANGI ROAD,UOB BEDOK MRT STATION,315 NEW UPPER CHANGI ROAD UOB BEDOK MRT STATION SINGAPORE 467347,467347,38772.05481,34027.1033,1.324001655,103.93011120000001,103.93011120000001
6,DBS BEDOK MRT STATION,315,NEW UPPER CHANGI ROAD,DBS BEDOK MRT STATION,315 NEW UPPER CHANGI ROAD DBS BEDOK MRT STATION SINGAPORE 467347,467347,38763.2919,34025.642810000005,1.32398845,103.9300325,103.9300325
0,JOO KOON MRT STATION EXIT A,,NIL,JOO KOON MRT STATION EXIT A,JOO KOON MRT STATION EXIT A,NIL,10772.99532,34414.67933,1.32750378,103.6785247,103.6785247
1,JOO KOON MRT STATION EXIT B,,NIL,JOO KOON MRT STATION EXIT B,JOO KOON MRT STATION EXIT B,NIL,10785.99079,34464.85792,1.3279575829999999,103.6786414,103.6786414
2,JOO KOON MRT STATION (EW29),91,JOO KOON CIRCLE,JOO KOON MRT STATION (EW29),91 JOO KOON CIRCLE JOO KOON MRT STATION SINGAPORE 629116,629116,10756.33797,34438.26178,1.3277170409999999,103.678375,103.678375
3,OCBC JOO KOON MRT STATION,91,JOO KOON CIRCLE,OCBC JOO KOON MRT STATION,91 JOO KOON CIRCLE OCBC JOO KOON MRT STATION SINGAPORE 629116,629116,10753.0595,34434.83641,1.3276860609999999,103.67834549999999,103.67834549999999
4,UOB JOO KOON MRT STATION,91,JOO KOON CIRCLE,UOB JOO KOON MRT STATION,91 JOO KOON CIRCLE UOB JOO KOON MRT STATION SINGAPORE 629116,629116,10741.31655,34435.20598,1.327689397,103.67824,103.67824
5,DBS JOO KOON MRT STATION,91,JOO KOON CIRCLE,DBS JOO KOON MRT STATION,91 JOO KOON CIRCLE DBS JOO KOON MRT STATION SINGAPORE 629116,629116,10724.0717,34435.75641,1.327694365,103.67808509999999,103.67808509999999
0,LAKESIDE MRT STATION EXIT B,,NIL,LAKESIDE MRT STATION EXIT B,LAKESIDE MRT STATION EXIT B,NIL,15507.2027,36246.829560000006,1.3440753769999998,103.7210633,103.7210633
1,LAKESIDE MRT STATION EXIT A,,NIL,LAKESIDE MRT STATION EXIT A,LAKESIDE MRT STATION EXIT A,NIL,15437.58198,36237.10642,1.343987415,103.72043769999999,103.72043769999999
2,LAKESIDE MRT STATION EXIT C,,NIL,LAKESIDE MRT STATION EXIT C,LAKESIDE MRT STATION EXIT C,NIL,15579.9718,36271.9515,1.3443026000000002,103.72171709999999,103.72171709999999
3,LAKESIDE MRT STATION (EW26),201,BOON LAY WAY,LAKESIDE MRT STATION (EW26),201 BOON LAY WAY LAKESIDE MRT STATION SINGAPORE 649845,649845,15494.49695,36267.14703,1.344259115,103.7209491,103.7209491
4,OCBC LAKESIDE MRT STATION,201,BOON LAY WAY,OCBC LAKESIDE MRT STATION,201 BOON LAY WAY OCBC LAKESIDE MRT STATION SINGAPORE 649845,649845,15422.4669,36250.08421,1.344104775,103.72030190000001,103.72030190000001
5,UOB LAKESIDE MRT STATION,201,BOON LAY WAY,UOB LAKESIDE MRT STATION,201 BOON LAY WAY UOB LAKESIDE MRT STATION SINGAPORE 649845,649845,15422.4669,36250.08421,1.344104775,103.72030190000001,103.72030190000001
6,DBS LAKESIDE MRT STATION,201,BOON LAY WAY,DBS LAKESIDE MRT STATION,201 BOON LAY WAY DBS LAKESIDE MRT STATION SINGAPORE 649845,649845,15422.4669,36250.08421,1.344104775,103.72030190000001,103.72030190000001
0,TANAH MERAH MRT STATION EXIT A,,NIL,TANAH MERAH MRT STATION EXIT A,TANAH MERAH MRT STATION EXIT A,NIL,40517.09594,34343.80257,1.3268651000000002,103.9457914,103.9457914
1,TANAH MERAH MRT STATION EXIT B,,NIL,TANAH MERAH MRT STATION EXIT B,TANAH MERAH MRT STATION EXIT B,NIL,40509.49156,34365.89091,1.327064862,103.9457231,103.9457231
2,TANAH MERAH MRT STATION (EW4),920,NEW UPPER CHANGI ROAD,TANAH MERAH MRT STATION (EW4),920 NEW UPPER CHANGI ROAD TANAH MERAH MRT STATION SINGAPORE 467356,467356,40579.099780000004,34379.43168,1.327187291,103.9463486,103.9463486
3,DBS TANAH MERAH MRT STATION,920,NEW UPPER CHANGI ROAD,DBS TANAH MERAH MRT STATION,920 NEW UPPER CHANGI ROAD DBS TANAH MERAH MRT STATION SINGAPORE 467356,467356,40590.5734,34393.10939,1.327310982,103.9464517,103.9464517
4,OCBC TANAH MERAH MRT STATION,920,NEW UPPER CHANGI ROAD,OCBC TANAH MERAH MRT STATION,920 NEW UPPER CHANGI ROAD OCBC TANAH MERAH MRT STATION SINGAPORE 467356,467356,40557.65851,34360.4065,1.327015243,103.94615590000001,103.94615590000001
5,UOB TANAH MERAH MRT STATION,920,NEW UPPER CHANGI ROAD,UOB TANAH MERAH MRT STATION,920 NEW UPPER CHANGI ROAD UOB TANAH MERAH MRT STATION SINGAPORE 467356,467356,40626.1595,34387.730110000004,1.3272623190000001,103.9467715,103.9467715
0,YIO CHU KANG MRT STATION EXIT C,,NIL,YIO CHU KANG MRT STATION EXIT C,YIO CHU KANG MRT STATION EXIT C,NIL,29261.21425,40435.65775,1.381960215,103.8446515,103.8446515
1,YIO CHU KANG MRT STATION EXIT A,,NIL,YIO CHU KANG MRT STATION EXIT A,YIO CHU KANG MRT STATION EXIT A,NIL,29280.077739999997,40401.39851,1.381650385,103.844821,103.844821
2,YIO CHU KANG MRT STATION EXIT B,,NIL,YIO CHU KANG MRT STATION EXIT B,YIO CHU KANG MRT STATION EXIT B,NIL,29294.74806,40389.33426,1.38154128,103.84495290000001,103.84495290000001
3,YIO CHU KANG MRT STATION (NS15),3000,ANG MO KIO AVENUE 8,YIO CHU KANG MRT STATION (NS15),3000 ANG MO KIO AVENUE 8 YIO CHU KANG MRT STATION SINGAPORE 569813,569813,29294.12623,40413.06264,1.381755871,103.8449473,103.8449473
4,UOB YIO CHU KANG MRT STATION,3000,ANG MO KIO AVENUE 8,UOB YIO CHU KANG MRT STATION,3000 ANG MO KIO AVENUE 8 UOB YIO CHU KANG MRT STATION SINGAPORE 569813,569813,29298.998710000003,40404.96071,1.3816826,103.8449911,103.8449911
5,DBS YIO CHU KANG MRT STATION,3000,ANG MO KIO AVENUE 8,DBS YIO CHU KANG MRT STATION,3000 ANG MO KIO AVENUE 8 DBS YIO CHU KANG MRT STATION SINGAPORE 569813,569813,29318.991710000002,40384.639910000005,1.381498825,103.84517070000001,103.84517070000001
0,BRAS BASAH MRT STATION EXIT E,,NIL,BRAS BASAH MRT STATION EXIT E,BRAS BASAH MRT STATION EXIT E,NIL,29903.7628,31100.22847,1.297533874,103.85042469999999,103.85042469999999
1,BRAS BASAH MRT STATION EXIT A,,NIL,BRAS BASAH MRT STATION EXIT A,BRAS BASAH MRT STATION EXIT A,NIL,30003.53492,31026.57579,1.296867779,103.8513212,103.8513212
2,BRAS BASAH MRT STATION EXIT B,,NIL,BRAS BASAH MRT STATION EXIT B,BRAS BASAH MRT STATION EXIT B,NIL,29909.17853,30936.071460000003,1.2960492959999999,103.8504734,103.8504734
3,BRAS BASAH MRT STATION EXIT D,,NIL,BRAS BASAH MRT STATION EXIT D,BRAS BASAH MRT STATION EXIT D,NIL,29874.59058,31103.551410000004,1.297563928,103.85016259999999,103.85016259999999
4,BRAS BASAH MRT STATION EXIT C,,NIL,BRAS BASAH MRT STATION EXIT C,BRAS BASAH MRT STATION EXIT C,NIL,29884.836110000004,31043.29437,1.297018983,103.85025470000001,103.85025470000001
5,BRAS BASAH MRT STATION (CC2),65,BRAS BASAH ROAD,BRAS BASAH MRT STATION (CC2),65 BRAS BASAH ROAD BRAS BASAH MRT STATION SINGAPORE 189561,189561,29930.76738,31025.9016,1.296861686,103.8506674,103.8506674
6,OCBC BRAS BASAH MRT STATION,65,BRAS BASAH ROAD,OCBC BRAS BASAH MRT STATION,65 BRAS BASAH ROAD OCBC BRAS BASAH MRT STATION SINGAPORE 189561,189561,29956.09812,31020.4566,1.296812442,103.850895,103.850895
7,DBS BRAS BASAH MRT STATION,65,BRAS BASAH ROAD,DBS BRAS BASAH MRT STATION,65 BRAS BASAH ROAD DBS BRAS BASAH MRT STATION SINGAPORE 189561,189561,29949.6059,31025.42155,1.296857344,103.8508366,103.8508366
0,MACPHERSON MRT STATION,171,PAYA LEBAR ROAD,MACPHERSON MRT STATION,171 PAYA LEBAR ROAD MACPHERSON MRT STATION SINGAPORE 409048,409048,34308.94224,34340.77432,1.326839632,103.8900079,103.8900079
0,CITY HALL MRT STATION,150,NORTH BRIDGE ROAD,CITY HALL MRT STATION,150 NORTH BRIDGE ROAD CITY HALL MRT STATION SINGAPORE 179100,179100,30139.47037,30597.78167,1.292989907,103.85254259999999,103.85254259999999
0,TAMPINES EAST MRT STATION EXIT D,,NIL,TAMPINES EAST MRT STATION EXIT D,TAMPINES EAST MRT STATION EXIT D,NIL,41620.2113,37673.91459,1.3569809080000002,103.95570500000001,103.95570500000001
1,TAMPINES EAST MRT STATION EXIT A,,NIL,TAMPINES EAST MRT STATION EXIT A,TAMPINES EAST MRT STATION EXIT A,NIL,41490.572739999996,37616.628169999996,1.35646289,103.95454009999999,103.95454009999999
2,TAMPINES EAST MRT STATION EXIT B,,NIL,TAMPINES EAST MRT STATION EXIT B,TAMPINES EAST MRT STATION EXIT B,NIL,41562.11079,37522.35157,1.3556102559999998,103.9551829,103.9551829
3,TAMPINES EAST MRT STATION EXIT C,,NIL,TAMPINES EAST MRT STATION EXIT C,TAMPINES EAST MRT STATION EXIT C,NIL,41620.248230000005,37516.94519,1.3555613359999998,103.95570529999999,103.95570529999999
4,TAMPINES EAST MRT STATION (DT33),20,TAMPINES AVENUE 7,TAMPINES EAST MRT STATION (DT33),20 TAMPINES AVENUE 7 TAMPINES EAST MRT STATION SINGAPORE 529623,529623,41501.07485,37586.61776,1.3561914830000001,103.9546345,103.9546345
0,TAMPINES WEST MRT STATION EXIT A,,NIL,TAMPINES WEST MRT STATION EXIT A,TAMPINES WEST MRT STATION EXIT A,NIL,39670.02432,36420.20639,1.345643664,103.9381809,103.9381809
1,TAMPINES WEST MRT STATION EXIT B,,NIL,TAMPINES WEST MRT STATION EXIT B,TAMPINES WEST MRT STATION EXIT B,NIL,39756.377389999994,36349.9497,1.345008255,103.9389568,103.9389568
2,TAMPINES WEST MRT STATION (DT31),2,TAMPINES AVENUE 4,TAMPINES WEST MRT STATION (DT31),2 TAMPINES AVENUE 4 TAMPINES WEST MRT STATION SINGAPORE 529683,529683,39698.52759,36406.01433,1.345515306,103.938437,103.938437
3,OCBC TAMPINES WEST MRT STATION,2,TAMPINES AVENUE 4,OCBC TAMPINES WEST MRT STATION,2 TAMPINES AVENUE 4 OCBC TAMPINES WEST MRT STATION SINGAPORE 529683,529683,39704.70625,36419.10142,1.3456336580000001,103.93849250000001,103.93849250000001
0,GEYLANG BAHRU MRT STATION EXIT A,,NIL,GEYLANG BAHRU MRT STATION EXIT A,GEYLANG BAHRU MRT STATION EXIT A,NIL,32255.94045,33757.66697,1.321566573,103.8715604,103.8715604
1,GEYLANG BAHRU MRT STATION EXIT B,,NIL,GEYLANG BAHRU MRT STATION EXIT B,GEYLANG BAHRU MRT STATION EXIT B,NIL,32280.92773,33706.93671,1.321107783,103.871785,103.871785
2,GEYLANG BAHRU MRT STATION (DT24),541,KALLANG BAHRU,GEYLANG BAHRU MRT STATION (DT24),541 KALLANG BAHRU GEYLANG BAHRU MRT STATION SINGAPORE 339355,339355,32262.86126,33728.31269,1.321301102,103.8716226,103.8716226
0,BENDEMEER MRT STATION EXIT A,,NIL,BENDEMEER MRT STATION EXIT A,BENDEMEER MRT STATION EXIT A,NIL,31310.24727,32907.08509,1.3138743290000001,103.86306280000001,103.86306280000001
1,BENDEMEER MRT STATION EXIT B,,NIL,BENDEMEER MRT STATION EXIT B,BENDEMEER MRT STATION EXIT B,NIL,31327.055839999997,32865.25655,1.313496045,103.8632138,103.8632138
2,BENDEMEER MRT STATION (DT23),11,KALLANG BAHRU,BENDEMEER MRT STATION (DT23),11 KALLANG BAHRU BENDEMEER MRT STATION SINGAPORE 339356,339356,31300.767610000003,32884.770919999995,1.313672528,103.8629776,103.8629776
0,BENCOOLEN MRT STATION EXIT A,,NIL,BENCOOLEN MRT STATION EXIT A,BENCOOLEN MRT STATION EXIT A,NIL,29949.79048,31284.61525,1.2992013999999998,103.85083829999999,103.85083829999999
1,BENCOOLEN MRT STATION EXIT B,,NIL,BENCOOLEN MRT STATION EXIT B,BENCOOLEN MRT STATION EXIT B,NIL,29810.26543,31164.52512,1.2981153559999998,103.84958459999999,103.84958459999999
2,BENCOOLEN MRT STATION EXIT C,,NIL,BENCOOLEN MRT STATION EXIT C,BENCOOLEN MRT STATION EXIT C,NIL,29833.3902,31164.243260000003,1.298112806,103.84979240000001,103.84979240000001
3,BENCOOLEN MRT STATION (DT21),31,BENCOOLEN STREET,BENCOOLEN MRT STATION (DT21),31 BENCOOLEN STREET BENCOOLEN MRT STATION SINGAPORE 189658,189658,29895.86395,31253.32587,1.298918434,103.8503538,103.8503538
0,HARBOURFRONT MRT STATION,81,TELOK BLANGAH ROAD,HARBOURFRONT MRT STATION,81 TELOK BLANGAH ROAD HARBOURFRONT MRT STATION SINGAPORE 098867,098867,26579.76679,27537.23074,1.265311399,103.8205573,103.8205573
0,PROMENADE MRT STATION EXIT B,,NIL,PROMENADE MRT STATION EXIT B,PROMENADE MRT STATION EXIT B,NIL,30983.999239999997,30694.05735,1.293860521,103.8601311,103.8601311
1,PROMENADE MRT STATION EXIT C,,NIL,PROMENADE MRT STATION EXIT C,PROMENADE MRT STATION EXIT C,NIL,30993.78472,30722.22207,1.294115232,103.860219,103.860219
2,PROMENADE MRT STATION EXIT A,,NIL,PROMENADE MRT STATION EXIT A,PROMENADE MRT STATION EXIT A,NIL,31041.577230000003,30456.041910000004,1.291707988,103.8606484,103.8606484
3,PROMENADE MRT STATION (DT15),10,TEMASEK AVENUE,PROMENADE MRT STATION (DT15),10 TEMASEK AVENUE PROMENADE MRT STATION SINGAPORE 039194,039194,31068.66081,30586.93695,1.292891754,103.86089179999999,103.86089179999999
4,PROMENADE MRT STATION (CC4),2,TEMASEK AVENUE,PROMENADE MRT STATION (CC4),2 TEMASEK AVENUE PROMENADE MRT STATION SINGAPORE 039193,039193,31008.36188,30709.257810000003,1.293997986,103.86035,103.86035
5,DBS PROMENADE MRT STATION,2,TEMASEK AVENUE,DBS PROMENADE MRT STATION,2 TEMASEK AVENUE DBS PROMENADE MRT STATION SINGAPORE 039193,039193,31088.18509,30607.077510000003,1.293073896,103.86106720000001,103.86106720000001
6,UOB PROMENADE MRT STATION,2,TEMASEK AVENUE,UOB PROMENADE MRT STATION,2 TEMASEK AVENUE UOB PROMENADE MRT STATION SINGAPORE 039193,039193,31008.361910000003,30709.32219,1.293998569,103.86035,103.86035
7,OCBC PROMENADE MRT STATION,2,TEMASEK AVENUE,OCBC PROMENADE MRT STATION,2 TEMASEK AVENUE OCBC PROMENADE MRT STATION SINGAPORE 039193,039193,31008.361910000003,30709.32219,1.293998569,103.86035,103.86035
0,BUGIS MRT STATION,320,VICTORIA STREET,BUGIS MRT STATION,320 VICTORIA STREET BUGIS MRT STATION SINGAPORE 188045,188045,30491.534989999996,31424.2825,1.300464463,103.85570609999999,103.85570609999999
1,BUGIS MRT STATION,220,VICTORIA STREET,BUGIS MRT STATION,220 VICTORIA STREET BUGIS MRT STATION SINGAPORE 188022,188022,30481.3648,31402.1925,1.30026469,103.8556148,103.8556148
0,KENT RIDGE MRT STATION EXIT A,,NIL,KENT RIDGE MRT STATION EXIT A,KENT RIDGE MRT STATION EXIT A,NIL,22563.07342,30744.66281,1.294317848,103.7844655,103.7844655
1,KENT RIDGE MRT STATION EXIT B,,NIL,KENT RIDGE MRT STATION EXIT B,KENT RIDGE MRT STATION EXIT B,NIL,22603.56617,30537.62995,1.292445523,103.7848293,103.7848293
2,KENT RIDGE MRT STATION EXIT C,,NIL,KENT RIDGE MRT STATION EXIT C,KENT RIDGE MRT STATION EXIT C,NIL,22563.01482,30708.24101,1.293988462,103.7844649,103.7844649
3,KENT RIDGE MRT STATION EXIT D,,NIL,KENT RIDGE MRT STATION EXIT D,KENT RIDGE MRT STATION EXIT D,NIL,22570.114719999998,30622.8244,1.2932159859999999,103.78452879999999,103.78452879999999
4,KENT RIDGE MRT STATION (CC24),301,SOUTH BUONA VISTA ROAD,KENT RIDGE MRT STATION (CC24),301 SOUTH BUONA VISTA ROAD KENT RIDGE MRT STATION SINGAPORE 118177,118177,22575.01071,30657.933289999997,1.293533499,103.78457270000001,103.78457270000001
5,OCBC KENT RIDGE MRT STATION,301,SOUTH BUONA VISTA ROAD,OCBC KENT RIDGE MRT STATION,301 SOUTH BUONA VISTA ROAD OCBC KENT RIDGE MRT STATION SINGAPORE 118177,118177,22574.63866,30661.29546,1.293563905,103.7845694,103.7845694
0,PUNGGOL MRT STATION EXIT A,,NIL,PUNGGOL MRT STATION EXIT A,PUNGGOL MRT STATION EXIT A,NIL,35674.221139999994,43022.835510000004,1.405356725,103.90227790000002,103.90227790000002
1,PUNGGOL MRT STATION EXIT C,,NIL,PUNGGOL MRT STATION EXIT C,PUNGGOL MRT STATION EXIT C,NIL,35658.61794,42906.691960000004,1.4043063690000002,103.90213759999999,103.90213759999999
2,PUNGGOL MRT STATION EXIT D,,NIL,PUNGGOL MRT STATION EXIT D,PUNGGOL MRT STATION EXIT D,NIL,35618.72882,42922.2965,1.4044475019999998,103.90177920000001,103.90177920000001
3,PUNGGOL MRT STATION EXIT B,,NIL,PUNGGOL MRT STATION EXIT B,PUNGGOL MRT STATION EXIT B,NIL,35714.11026,43000.70247,1.405156551,103.9026363,103.9026363
4,PUNGGOL MRT STATION (NE17),70,PUNGGOL CENTRAL,PUNGGOL MRT STATION (NE17),70 PUNGGOL CENTRAL PUNGGOL MRT STATION SINGAPORE 828868,828868,35651.3828,42933.24827,1.4045465369999999,103.9020726,103.9020726
5,OCBC PUNGGOL MRT STATION,70,PUNGGOL CENTRAL,OCBC PUNGGOL MRT STATION,70 PUNGGOL CENTRAL OCBC PUNGGOL MRT STATION SINGAPORE 828868,828868,35648.23139,42916.804489999995,1.4043978259999998,103.9020443,103.9020443
6,DBS PUNGGOL MRT STATION,70,PUNGGOL CENTRAL,DBS PUNGGOL MRT STATION,70 PUNGGOL CENTRAL DBS PUNGGOL MRT STATION SINGAPORE 828868,828868,35684.44979,42997.71789,1.4051295680000002,103.9023698,103.9023698
0,TANJONG PAGAR MRT STATION EXIT F,,NIL,TANJONG PAGAR MRT STATION EXIT F,TANJONG PAGAR MRT STATION EXIT F,NIL,29514.57307,28871.658069999998,1.277379488,103.8469276,103.8469276
1,TANJONG PAGAR MRT STATION EXIT H,,NIL,TANJONG PAGAR MRT STATION EXIT H,TANJONG PAGAR MRT STATION EXIT H,NIL,29460.876669999998,28658.40505,1.275450905,103.84644509999998,103.84644509999998
2,TANJONG PAGAR MRT STATION EXIT A,,NIL,TANJONG PAGAR MRT STATION EXIT A,TANJONG PAGAR MRT STATION EXIT A,NIL,29280.07735,28763.21157,1.276398746,103.8448205,103.8448205
3,TANJONG PAGAR MRT STATION EXIT D,,NIL,TANJONG PAGAR MRT STATION EXIT D,TANJONG PAGAR MRT STATION EXIT D,NIL,29510.57682,28725.86624,1.276060998,103.8468917,103.8468917
4,TANJONG PAGAR MRT STATION EXIT E,,NIL,TANJONG PAGAR MRT STATION EXIT E,TANJONG PAGAR MRT STATION EXIT E,NIL,29534.00034,28748.65836,1.2762671209999998,103.8471021,103.8471021
5,TANJONG PAGAR MRT STATION EXIT G,,NIL,TANJONG PAGAR MRT STATION EXIT G,TANJONG PAGAR MRT STATION EXIT G,NIL,29517.418260000002,28916.446689999997,1.27778454,103.8469531,103.8469531
6,TANJONG PAGAR MRT STATION EXIT B,,NIL,TANJONG PAGAR MRT STATION EXIT B,TANJONG PAGAR MRT STATION EXIT B,NIL,29473.08,28792.392180000003,1.276662637,103.8465547,103.8465547
7,TANJONG PAGAR MRT STATION EXIT C,,NIL,TANJONG PAGAR MRT STATION EXIT C,TANJONG PAGAR MRT STATION EXIT C,NIL,29470.31223,28729.4352,1.2760932759999999,103.84652990000001,103.84652990000001
8,TANJONG PAGAR MRT STATION EXIT I,,NIL,TANJONG PAGAR MRT STATION EXIT I,TANJONG PAGAR MRT STATION EXIT I,NIL,29373.92705,28762.54501,1.276392714,103.8456638,103.8456638
9,TANJONG PAGAR MRT STATION (EW15),120,MAXWELL ROAD,TANJONG PAGAR MRT STATION (EW15),120 MAXWELL ROAD TANJONG PAGAR MRT STATION SINGAPORE 069119,069119,29380.756739999997,28781.18833,1.276561317,103.8457252,103.8457252
0,ONE-NORTH MRT STATION EXIT C,,NIL,ONE-NORTH MRT STATION EXIT C,ONE-NORTH MRT STATION EXIT C,NIL,22908.08669,31341.4124,1.299714698,103.7875655,103.7875655
1,ONE-NORTH MRT STATION EXIT A,,NIL,ONE-NORTH MRT STATION EXIT A,ONE-NORTH MRT STATION EXIT A,NIL,22833.66719,31266.325610000004,1.299035627,103.7868968,103.7868968
2,ONE-NORTH MRT STATION EXIT B,,NIL,ONE-NORTH MRT STATION EXIT B,ONE-NORTH MRT STATION EXIT B,NIL,22948.05187,31414.04808,1.300371595,103.7879245,103.7879245
3,ONE-NORTH MRT STATION EXIT D,,NIL,ONE-NORTH MRT STATION EXIT D,ONE-NORTH MRT STATION EXIT D,NIL,22932.95756,31382.158310000003,1.3000831929999999,103.78778890000001,103.78778890000001
4,ONE-NORTH MRT STATION (CC23),9,AYER RAJAH AVENUE,ONE-NORTH MRT STATION (CC23),9 AYER RAJAH AVENUE ONE-NORTH MRT STATION SINGAPORE 138647,138647,22896.072809999998,31346.4081,1.299759875,103.7874575,103.7874575
0,BISHAN MRT STATION,17,BISHAN PLACE,BISHAN MRT STATION,17 BISHAN PLACE BISHAN MRT STATION SINGAPORE 579842,579842,29862.821239999997,37014.327919999996,1.3510188980000002,103.85005720000001,103.85005720000001
0,STADIUM MRT STATION EXIT A,,NIL,STADIUM MRT STATION EXIT A,STADIUM MRT STATION EXIT A,NIL,32571.988210000003,31650.61392,1.302511088,103.8744,103.8744
1,STADIUM MRT STATION EXIT B,,NIL,STADIUM MRT STATION EXIT B,STADIUM MRT STATION EXIT B,NIL,32775.23115,31745.61635,1.303370226,103.8762262,103.8762262
2,STADIUM MRT STATION (CC6),3,STADIUM WALK,STADIUM MRT STATION (CC6),3 STADIUM WALK STADIUM MRT STATION SINGAPORE 397692,397692,32676.347710000002,31683.94076,1.302812468,103.8753377,103.8753377
0,SOMERSET MRT STATION,1,SOMERSET ROAD,SOMERSET MRT STATION,1 SOMERSET ROAD SOMERSET MRT STATION SINGAPORE 238162,238162,28649.91258,31400.876119999997,1.3002528770000001,103.8391583,103.8391583
0,ORCHARD MRT STATION EXIT B,,NIL,ORCHARD MRT STATION EXIT B,ORCHARD MRT STATION EXIT B,NIL,27872.351810000004,31723.16322,1.303167535,103.8321716,103.8321716
1,ORCHARD MRT STATION EXIT D,,NIL,ORCHARD MRT STATION EXIT D,ORCHARD MRT STATION EXIT D,NIL,27938.986889999996,31832.17276,1.3041533790000002,103.83277029999999,103.83277029999999
2,ORCHARD MRT STATION EXIT E,,NIL,ORCHARD MRT STATION EXIT E,ORCHARD MRT STATION EXIT E,NIL,27857.6837,31877.18731,1.304560474,103.83203979999999,103.83203979999999
3,ORCHARD MRT STATION EXIT A,,NIL,ORCHARD MRT STATION EXIT A,ORCHARD MRT STATION EXIT A,NIL,27911.69398,31914.47625,1.304897702,103.8325251,103.8325251
4,ORCHARD MRT STATION EXIT C,,NIL,ORCHARD MRT STATION EXIT C,ORCHARD MRT STATION EXIT C,NIL,27922.21135,31854.40054,1.3043543990000002,103.8326196,103.8326196
5,ORCHARD MRT STATION (TE14),301,ORCHARD BOULEVARD,ORCHARD MRT STATION (TE14),301 ORCHARD BOULEVARD ORCHARD MRT STATION SINGAPORE 237974,237974,27783.69734,31709.532489999998,1.3030442629999999,103.831375,103.831375
6,ORCHARD MRT STATION (NS22),437,ORCHARD ROAD,ORCHARD MRT STATION (NS22),437 ORCHARD ROAD ORCHARD MRT STATION SINGAPORE 238878,238878,27880.55443,31812.99412,1.303979934,103.8322453,103.8322453
7,OCBC ORCHARD MRT STATION,437,ORCHARD ROAD,OCBC ORCHARD MRT STATION,437 ORCHARD ROAD OCBC ORCHARD MRT STATION SINGAPORE 238878,238878,27886.04631,31742.600510000004,1.3033433190000001,103.8322947,103.8322947
8,UOB ORCHARD MRT STATION,437,ORCHARD ROAD,UOB ORCHARD MRT STATION,437 ORCHARD ROAD UOB ORCHARD MRT STATION SINGAPORE 238878,238878,27886.04631,31742.600510000004,1.3033433190000001,103.8322947,103.8322947
9,DBS ORCHARD MRT STATION,437,ORCHARD ROAD,DBS ORCHARD MRT STATION,437 ORCHARD ROAD DBS ORCHARD MRT STATION SINGAPORE 238878,238878,27886.04631,31742.600510000004,1.3033433190000001,103.8322947,103.8322947
0,JALAN BESAR MRT STATION EXIT A,,NIL,JALAN BESAR MRT STATION EXIT A,JALAN BESAR MRT STATION EXIT A,NIL,30445.500689999997,31913.648060000003,1.304890116,103.8552925,103.8552925
1,JALAN BESAR MRT STATION EXIT B,,NIL,JALAN BESAR MRT STATION EXIT B,JALAN BESAR MRT STATION EXIT B,NIL,30439.327530000002,31980.26317,1.30549256,103.8552371,103.8552371
2,JALAN BESAR MRT STATION (DT22),90,JALAN BESAR,JALAN BESAR MRT STATION (DT22),90 JALAN BESAR JALAN BESAR MRT STATION SINGAPORE 208826,208826,30445.85298,31944.74962,1.305171388,103.8552957,103.8552957
0,BAYFRONT MRT STATION EXIT,,NIL,BAYFRONT MRT STATION EXIT,BAYFRONT MRT STATION EXIT,NIL,31099.66976,29376.06397,1.281941042,103.8611703,103.8611703
1,BAYFRONT MRT STATION EXIT D,,NIL,BAYFRONT MRT STATION EXIT D,BAYFRONT MRT STATION EXIT D,NIL,30913.092060000003,29474.839839999997,1.282834354,103.8594938,103.8594938
2,BAYFRONT MRT STATION EXIT A,,NIL,BAYFRONT MRT STATION EXIT A,BAYFRONT MRT STATION EXIT A,NIL,30847.11615,29302.4357,1.281275198,103.858901,103.858901
3,BAYFRONT MRT STATION EXIT B,,NIL,BAYFRONT MRT STATION EXIT B,BAYFRONT MRT STATION EXIT B,NIL,30942.62166,29460.56167,1.282705224,103.8597592,103.8597592
4,BAYFRONT MRT STATION EXIT C,,NIL,BAYFRONT MRT STATION EXIT C,BAYFRONT MRT STATION EXIT C,NIL,30924.55803,29474.901280000002,1.282834909,103.8595969,103.8595969
5,BAYFRONT MRT STATION EXIT E,,NIL,BAYFRONT MRT STATION EXIT E,BAYFRONT MRT STATION EXIT E,NIL,30793.50465,29285.373069999998,1.281120894,103.8584193,103.8584193
6,BAYFRONT MRT STATION (DT16 / CE1),11,BAYFRONT AVENUE,BAYFRONT MRT STATION (DT16 / CE1),11 BAYFRONT AVENUE BAYFRONT MRT STATION SINGAPORE 018957,018957,30867.00927,29368.625030000003,1.281873789,103.85907979999999,103.85907979999999
7,UOB BAYFRONT MRT STATION,11,BAYFRONT AVENUE,UOB BAYFRONT MRT STATION,11 BAYFRONT AVENUE UOB BAYFRONT MRT STATION SINGAPORE 018957,018957,30867.0093,29368.625,1.281873789,103.85907979999999,103.85907979999999
0,SENGKANG MRT STATION EXIT B,,NIL,SENGKANG MRT STATION EXIT B,SENGKANG MRT STATION EXIT B,NIL,34935.211639999994,41523.29745,1.391795637,103.8956369,103.8956369
1,SENGKANG MRT STATION EXIT D,,NIL,SENGKANG MRT STATION EXIT D,SENGKANG MRT STATION EXIT D,NIL,34946.13603,41594.53815,1.39243991,103.8957351,103.8957351
2,SENGKANG MRT STATION EXIT C,,NIL,SENGKANG MRT STATION EXIT C,SENGKANG MRT STATION EXIT C,NIL,34887.63964,41422.225,1.390881586,103.8952094,103.8952094
3,SENGKANG MRT STATION EXIT A,,NIL,SENGKANG MRT STATION EXIT A,SENGKANG MRT STATION EXIT A,NIL,34909.48495,41526.999110000004,1.39182912,103.8954057,103.8954057
4,SENGKANG MRT STATION (NE16),5,SENGKANG SQUARE,SENGKANG MRT STATION (NE16),5 SENGKANG SQUARE SENGKANG MRT STATION SINGAPORE 545062,545062,34918.27401,41512.12769,1.391694626,103.89548470000001,103.89548470000001
5,UOB SENGKANG MRT STATION AUTOLOBBY,5,SENGKANG SQUARE,UOB SENGKANG MRT STATION AUTOLOBBY,5 SENGKANG SQUARE UOB SENGKANG MRT STATION AUTOLOBBY SINGAPORE 545062,545062,34918.24069,41512.00229,1.391693492,103.8954844,103.8954844
6,OCBC SENGKANG MRT STATION,5,SENGKANG SQUARE,OCBC SENGKANG MRT STATION,5 SENGKANG SQUARE OCBC SENGKANG MRT STATION SINGAPORE 545062,545062,34920.88653,41517.823130000004,1.391746133,103.89550820000001,103.89550820000001
0,BUKIT BROWN MRT STATION EXIT,,NIL,BUKIT BROWN MRT STATION EXIT,BUKIT BROWN MRT STATION EXIT,NIL,27588.587489999998,35059.68712,1.333341876,103.8296218,103.8296218
1,BUKIT BROWN MRT STATION (CC18),490,JALAN MASHHOR,BUKIT BROWN MRT STATION (CC18),490 JALAN MASHHOR BUKIT BROWN MRT STATION SINGAPORE 299176,299176,27707.416569999998,35102.48027,1.333728883,103.8306895,103.8306895
0,MOUNTBATTEN MRT STATION,301,MOUNTBATTEN ROAD,MOUNTBATTEN MRT STATION,301 MOUNTBATTEN ROAD MOUNTBATTEN MRT STATION SINGAPORE 398006,398006,33534.1084,32053.452639999996,1.306154061,103.88304509999999,103.88304509999999
0,KOVAN MRT STATION,900,UPPER SERANGOON ROAD,KOVAN MRT STATION,900 UPPER SERANGOON ROAD KOVAN MRT STATION SINGAPORE 534799,534799,33695.30948,37996.621060000005,1.35990192,103.8844947,103.8844947
0,FORT CANNING MRT STATION EXIT B,,NIL,FORT CANNING MRT STATION EXIT B,FORT CANNING MRT STATION EXIT B,NIL,29234.809760000004,30579.48737,1.2928245090000001,103.8444139,103.8444139
1,FORT CANNING MRT STATION EXIT A,,NIL,FORT CANNING MRT STATION EXIT A,FORT CANNING MRT STATION EXIT A,NIL,29206.274530000002,30533.94232,1.292412616,103.8441575,103.8441575
2,FORT CANNING MRT STATION (DT20),170,RIVER VALLEY ROAD,FORT CANNING MRT STATION (DT20),170 RIVER VALLEY ROAD FORT CANNING MRT STATION SINGAPORE 179038,179038,29225.627610000003,30541.60877,1.292481948,103.8443314,103.8443314
0,FARRER ROAD MRT STATION EXIT B,,NIL,FARRER ROAD MRT STATION EXIT B,FARRER ROAD MRT STATION EXIT B,NIL,25113.765330000002,33313.56147,1.3175504,103.8073843,103.8073843
1,FARRER ROAD MRT STATION EXIT A,,NIL,FARRER ROAD MRT STATION EXIT A,FARRER ROAD MRT STATION EXIT A,NIL,25178.570209999998,33307.4707,1.317495323,103.8079666,103.8079666
2,FARRER ROAD MRT STATION (CC20),71,FARRER ROAD,FARRER ROAD MRT STATION (CC20),71 FARRER ROAD FARRER ROAD MRT STATION SINGAPORE 268857,268857,25113.2012,33301.26022,1.317439152,103.8073792,103.8073792
0,DOWNTOWN MRT STATION EXIT C,,NIL,DOWNTOWN MRT STATION EXIT C,DOWNTOWN MRT STATION EXIT C,NIL,30207.948589999996,29101.637510000004,1.2794593,103.85315779999999,103.85315779999999
1,DOWNTOWN MRT STATION EXIT A,,NIL,DOWNTOWN MRT STATION EXIT A,DOWNTOWN MRT STATION EXIT A,NIL,30150.798489999997,29138.15008,1.279789511,103.8526443,103.8526443
2,DOWNTOWN MRT STATION EXIT B,,NIL,DOWNTOWN MRT STATION EXIT B,DOWNTOWN MRT STATION EXIT B,NIL,30180.96105,29119.100039999998,1.2796172270000001,103.85291529999999,103.85291529999999
3,DOWNTOWN MRT STATION EXIT,,NIL,DOWNTOWN MRT STATION EXIT,DOWNTOWN MRT STATION EXIT,NIL,30105.4158,29007.51001,1.278608051,103.8522365,103.8522365
4,DOWNTOWN MRT STATION EXIT E,,NIL,DOWNTOWN MRT STATION EXIT E,DOWNTOWN MRT STATION EXIT E,NIL,30129.15165,29109.1186,1.279526962,103.8524498,103.8524498
5,DOWNTOWN MRT STATION EXIT F,,NIL,DOWNTOWN MRT STATION EXIT F,DOWNTOWN MRT STATION EXIT F,NIL,30125.86827,29144.07119,1.279843061,103.85242029999999,103.85242029999999
6,DOWNTOWN MRT STATION EXIT D,,NIL,DOWNTOWN MRT STATION EXIT D,DOWNTOWN MRT STATION EXIT D,NIL,30191.666869999997,29069.16825,1.279165661,103.8530115,103.8530115
7,DOWNTOWN MRT STATION (DT17),15,CENTRAL BOULEVARD,DOWNTOWN MRT STATION (DT17),15 CENTRAL BOULEVARD DOWNTOWN MRT STATION SINGAPORE 018969,018969,30172.62595,29100.18758,1.27944619,103.8528404,103.8528404
0,ESPLANADE MRT STATION EXIT C,,NIL,ESPLANADE MRT STATION EXIT C,ESPLANADE MRT STATION EXIT C,NIL,30507.900139999998,30588.96863,1.292910178,103.85585309999999,103.85585309999999
1,ESPLANADE MRT STATION EXIT D,,NIL,ESPLANADE MRT STATION EXIT D,ESPLANADE MRT STATION EXIT D,NIL,30506.219930000003,30556.61322,1.292617567,103.855838,103.855838
2,ESPLANADE MRT STATION EXIT,,NIL,ESPLANADE MRT STATION EXIT,ESPLANADE MRT STATION EXIT,NIL,30320.000089999998,30638.581789999997,1.2933588759999999,103.85416479999999,103.85416479999999
3,ESPLANADE MRT STATION EXIT E,,NIL,ESPLANADE MRT STATION EXIT E,ESPLANADE MRT STATION EXIT E,NIL,30475.734889999996,30612.80285,1.293125728,103.8555641,103.8555641
4,ESPLANADE MRT STATION EXIT B,,NIL,ESPLANADE MRT STATION EXIT B,ESPLANADE MRT STATION EXIT B,NIL,30543.39958,30590.45288,1.292923598,103.8561721,103.8561721
5,ESPLANADE MRT STATION EXIT A,,NIL,ESPLANADE MRT STATION EXIT A,ESPLANADE MRT STATION EXIT A,NIL,30557.995339999998,30640.81844,1.293379085,103.8563033,103.8563033
6,ESPLANADE MRT STATION EXIT F,,NIL,ESPLANADE MRT STATION EXIT F,ESPLANADE MRT STATION EXIT F,NIL,30424.34888,30689.94871,1.293823412,103.8551024,103.8551024
7,ESPLANADE MRT STATION EXIT G,,NIL,ESPLANADE MRT STATION EXIT G,ESPLANADE MRT STATION EXIT G,NIL,30403.83745,30664.508139999998,1.293593338,103.85491809999999,103.85491809999999
8,ESPLANADE MRT STATION (CC3),90,BRAS BASAH ROAD,ESPLANADE MRT STATION (CC3),90 BRAS BASAH ROAD ESPLANADE MRT STATION SINGAPORE 189562,189562,30421.99348,30671.62777,1.293657725,103.8550812,103.8550812
9,OCBC ESPLANADE MRT STATION,90,BRAS BASAH ROAD,OCBC ESPLANADE MRT STATION,90 BRAS BASAH ROAD OCBC ESPLANADE MRT STATION SINGAPORE 189562,189562,30353.23059,30643.46901,1.293403072,103.85446340000001,103.85446340000001
0,NICOLL HIGHWAY MRT STATION (CC5),20,REPUBLIC AVENUE,NICOLL HIGHWAY MRT STATION (CC5),20 REPUBLIC AVENUE NICOLL HIGHWAY MRT STATION SINGAPORE 038970,038970,31374.164930000003,31347.152869999998,1.2997668470000001,103.863637,103.863637
1,NICOLL HIGHWAY MRT STATION EXIT A,,NIL,NICOLL HIGHWAY MRT STATION EXIT A,NICOLL HIGHWAY MRT STATION EXIT A,NIL,31359.446,31392.23579,1.300174562,103.86350470000001,103.86350470000001
2,NICOLL HIGHWAY MRT STATION EXIT B,,NIL,NICOLL HIGHWAY MRT STATION EXIT B,NICOLL HIGHWAY MRT STATION EXIT B,NIL,31432.864110000002,31335.62634,1.299662598,103.8641644,103.8641644
3,OCBC NICOLL HIGHWAY MRT STATION,20,REPUBLIC AVENUE,OCBC NICOLL HIGHWAY MRT STATION,20 REPUBLIC AVENUE OCBC NICOLL HIGHWAY MRT STATION SINGAPORE 038970,038970,31419.0321,31327.307210000003,1.299587365,103.8640401,103.8640401
4,DBS NICOLL HIGHWAY MRT STATION,20,REPUBLIC AVENUE,DBS NICOLL HIGHWAY MRT STATION,20 REPUBLIC AVENUE DBS NICOLL HIGHWAY MRT STATION SINGAPORE 038970,038970,31412.08823,31325.21345,1.29956843,103.8639777,103.8639777
0,CALDECOTT MRT STATION,38,TOA PAYOH RISE,CALDECOTT MRT STATION,38 TOA PAYOH RISE CALDECOTT MRT STATION SINGAPORE 298113,298113,28692.83182,35502.578519999995,1.3373472229999999,103.8395441,103.8395441
0,MARINA BAY MRT STATION,21,PARK STREET,MARINA BAY MRT STATION,21 PARK STREET MARINA BAY MRT STATION SINGAPORE 018925,018925,30369.006869999997,28753.5319,1.2763111440000001,103.854605,103.854605
0,LABRADOR PARK MRT STATION,701,TELOK BLANGAH ROAD,LABRADOR PARK MRT STATION,701 TELOK BLANGAH ROAD LABRADOR PARK MRT STATION SINGAPORE 109029,109029,24672.10103,28317.571689999997,1.272368386,103.8034162,103.8034162
0,CHINATOWN MRT STATION,151,NEW BRIDGE ROAD,CHINATOWN MRT STATION,151 NEW BRIDGE ROAD CHINATOWN MRT STATION SINGAPORE 059443,059443,29093.25939,29599.743210000004,1.283964052,103.8431419,103.8431419
0,NEWTON MRT STATION,49,SCOTTS ROAD,NEWTON MRT STATION,49 SCOTTS ROAD NEWTON MRT STATION SINGAPORE 228234,228234,28524.50935,32762.875,1.312570317,103.8380316,103.8380316
0,TAN KAH KEE MRT STATION,651,BUKIT TIMAH ROAD,TAN KAH KEE MRT STATION,651 BUKIT TIMAH ROAD TAN KAH KEE MRT STATION SINGAPORE 266268,266268,25020.72827,34291.24803,1.326392241,103.80654820000001,103.80654820000001
0,TIONG BAHRU MRT STATION,300,TIONG BAHRU ROAD,TIONG BAHRU MRT STATION,300 TIONG BAHRU ROAD TIONG BAHRU MRT STATION SINGAPORE 168731,168731,27296.677000000003,29846.38215,1.286194579,103.8269989,103.8269989
0,HILLVIEW MRT STATION,510,UPPER BUKIT TIMAH ROAD,HILLVIEW MRT STATION,510 UPPER BUKIT TIMAH ROAD HILLVIEW MRT STATION SINGAPORE 678211,678211,20706.4283,38326.8961,1.362888457,103.7677809,103.7677809
0,KING ALBERT PARK MRT STATION,2,BLACKMORE DRIVE,KING ALBERT PARK MRT STATION,2 BLACKMORE DRIVE KING ALBERT PARK MRT STATION SINGAPORE 599987,599987,22426.32206,35341.88879,1.335893496,103.78323590000001,103.78323590000001
0,MATTAR MRT STATION (DT25),60,MERPATI ROAD,MATTAR MRT STATION (DT25),60 MERPATI ROAD MATTAR MRT STATION SINGAPORE 379314,379314,33556.583439999995,34344.85853,1.326876715,103.8832475,103.8832475
1,MATTAR MRT STATION EXIT B,,NIL,MATTAR MRT STATION EXIT B,MATTAR MRT STATION EXIT B,NIL,33611.44637,34301.30542,1.326482826,103.8837405,103.8837405
2,MATTAR MRT STATION EXIT A,,NIL,MATTAR MRT STATION EXIT A,MATTAR MRT STATION EXIT A,NIL,33499.85721,34387.104889999995,1.327258786,103.8827378,103.8827378
0,UBI MRT STATION EXIT B,,NIL,UBI MRT STATION EXIT B,UBI MRT STATION EXIT B,NIL,35263.14058,34671.5058,1.329830436,103.8985819,103.8985819
1,UBI MRT STATION EXIT A,,NIL,UBI MRT STATION EXIT A,UBI MRT STATION EXIT A,NIL,35406.47779,34686.07148,1.329962128,103.8998699,103.8998699
2,UBI MRT STATION (DT27),51,UBI AVENUE 2,UBI MRT STATION (DT27),51 UBI AVENUE 2 UBI MRT STATION SINGAPORE 408899,408899,35334.89183,34687.41099,1.32997426,103.8992267,103.8992267
3,OCBC UBI MRT STATION,51,UBI AVENUE 2,OCBC UBI MRT STATION,51 UBI AVENUE 2 OCBC UBI MRT STATION SINGAPORE 408899,408899,35318.85813,34677.347219999996,1.32988325,103.89908259999999,103.89908259999999
0,BEAUTY WORLD MRT STATION,101,UPPER BUKIT TIMAH ROAD,BEAUTY WORLD MRT STATION,101 UPPER BUKIT TIMAH ROAD BEAUTY WORLD MRT STATION SINGAPORE 588216,588216,21592.871909999998,35895.66565,1.34090149,103.77574670000001,103.77574670000001
0,KAKI BUKIT MRT STATION EXIT A,,NIL,KAKI BUKIT MRT STATION EXIT A,KAKI BUKIT MRT STATION EXIT A,NIL,36467.74177,35278.78955,1.335322179,103.9094061,103.9094061
1,KAKI BUKIT MRT STATION EXIT B,,NIL,KAKI BUKIT MRT STATION EXIT B,KAKI BUKIT MRT STATION EXIT B,NIL,36422.108210000006,35222.30323,1.334811349,103.908996,103.908996
2,KAKI BUKIT MRT STATION (DT28),30,KAKI BUKIT AVENUE 1,KAKI BUKIT MRT STATION (DT28),30 KAKI BUKIT AVENUE 1 KAKI BUKIT MRT STATION SINGAPORE 415804,415804,36362.378280000004,35239.552260000004,1.33496736,103.9084593,103.9084593
3,OCBC KAKI BUKIT MRT STATION,30,KAKI BUKIT AVENUE 1,OCBC KAKI BUKIT MRT STATION,30 KAKI BUKIT AVENUE 1 OCBC KAKI BUKIT MRT STATION SINGAPORE 415804,415804,36397.618239999996,35247.423780000005,1.335038537,103.908776,103.908776
0,BEDOK NORTH MRT STATION EXIT B,,NIL,BEDOK NORTH MRT STATION EXIT B,BEDOK NORTH MRT STATION EXIT B,NIL,37541.60897,35151.942610000006,1.334174701,103.9190554,103.9190554
1,BEDOK NORTH MRT STATION EXIT C,,NIL,BEDOK NORTH MRT STATION EXIT C,BEDOK NORTH MRT STATION EXIT C,NIL,37401.440989999996,35182.40594,1.334450245,103.9177959,103.9177959
2,BEDOK NORTH MRT STATION EXIT A,,NIL,BEDOK NORTH MRT STATION EXIT A,BEDOK NORTH MRT STATION EXIT A,NIL,37428.491460000005,35261.58922,1.3351663409999999,103.91803900000001,103.91803900000001
3,BEDOK NORTH MRT STATION (DT29),651,BEDOK NORTH ROAD,BEDOK NORTH MRT STATION (DT29),651 BEDOK NORTH ROAD BEDOK NORTH MRT STATION SINGAPORE 479481,479481,37421.743819999996,35214.680389999994,1.334742117,103.91797829999999,103.91797829999999
0,DHOBY GHAUT MRT STATION EXIT C,,NIL,DHOBY GHAUT MRT STATION EXIT C,DHOBY GHAUT MRT STATION EXIT C,NIL,29271.97633,31334.13143,1.299649242,103.8447479,103.8447479
1,DHOBY GHAUT MRT STATION (CC1),13,ORCHARD ROAD,DHOBY GHAUT MRT STATION (CC1),13 ORCHARD ROAD DHOBY GHAUT MRT STATION SINGAPORE 238893,238893,29443.882410000002,31252.57238,1.2989116440000001,103.8462925,103.8462925
2,DHOBY GHAUT MRT STATION EXIT A,,NIL,DHOBY GHAUT MRT STATION EXIT A,DHOBY GHAUT MRT STATION EXIT A,NIL,29498.05323,31201.76385,1.2984521470000001,103.8467793,103.8467793
3,DHOBY GHAUT MRT STATION EXIT F,,NIL,DHOBY GHAUT MRT STATION EXIT F,DHOBY GHAUT MRT STATION EXIT F,NIL,29393.77997,31332.54518,1.299634892,103.8458423,103.8458423
4,DHOBY GHAUT MRT STATION EXIT B,,NIL,DHOBY GHAUT MRT STATION EXIT B,DHOBY GHAUT MRT STATION EXIT B,NIL,29325.147889999997,31269.46615,1.29906443,103.84522559999999,103.84522559999999
5,DHOBY GHAUT MRT STATION EXIT D,,NIL,DHOBY GHAUT MRT STATION EXIT D,DHOBY GHAUT MRT STATION EXIT D,NIL,29303.39081,31365.24992,1.2999306659999998,103.8450301,103.8450301
6,DHOBY GHAUT MRT STATION EXIT E,,NIL,DHOBY GHAUT MRT STATION EXIT E,DHOBY GHAUT MRT STATION EXIT E,NIL,29341.47047,31345.10391,1.299748471,103.8453723,103.8453723
7,DHOBY GHAUT MRT STATION (NS24),11,ORCHARD ROAD,DHOBY GHAUT MRT STATION (NS24),11 ORCHARD ROAD DHOBY GHAUT MRT STATION SINGAPORE 238826,238826,29423.98045,31229.31637,1.298701325,103.8461137,103.8461137
8,DHOBY GHAUT MRT STATION (NE6),60,ORCHARD ROAD,DHOBY GHAUT MRT STATION (NE6),60 ORCHARD ROAD DHOBY GHAUT MRT STATION SINGAPORE 238889,238889,29354.36806,31340.3479,1.2997054590000001,103.84548819999999,103.84548819999999
9,DBS DHOBY GHAUT MRT STATION,11,ORCHARD ROAD,DBS DHOBY GHAUT MRT STATION,11 ORCHARD ROAD DBS DHOBY GHAUT MRT STATION SINGAPORE 238826,238826,29431.350010000002,31227.922889999998,1.298688723,103.84617990000001,103.84617990000001
0,SERANGOON MRT STATION,21,SERANGOON CENTRAL,SERANGOON MRT STATION,21 SERANGOON CENTRAL SERANGOON MRT STATION SINGAPORE 556082,556082,32201.35523,37017.60413,1.35104829,103.87107040000001,103.87107040000001
0,WOODLEIGH MRT STATION,400,UPPER SERANGOON ROAD,WOODLEIGH MRT STATION,400 UPPER SERANGOON ROAD WOODLEIGH MRT STATION SINGAPORE 347695,347695,32189.184989999998,35776.94859,1.339828246,103.8709609,103.8709609
0,NOVENA MRT STATION EXIT A,,NIL,NOVENA MRT STATION EXIT A,NOVENA MRT STATION EXIT A,NIL,29233.89694,33706.37788,1.321103004,103.84440579999999,103.84440579999999
1,NOVENA MRT STATION EXIT B,,NIL,NOVENA MRT STATION EXIT B,NOVENA MRT STATION EXIT B,NIL,29113.3787,33571.58707,1.319884008,103.8433229,103.8433229
2,NOVENA MRT STATION (NS20),250,THOMSON ROAD,NOVENA MRT STATION (NS20),250 THOMSON ROAD NOVENA MRT STATION SINGAPORE 307642,307642,29169.329789999996,33633.15354,1.320440791,103.84382559999999,103.84382559999999
3,DBS NOVENA MRT STATION,238,THOMSON ROAD,DBS NOVENA MRT STATION,238 THOMSON ROAD DBS NOVENA MRT STATION SINGAPORE 307683,307683,29150.53779,33607.74511,1.320211007,103.84365679999999,103.84365679999999
4,OCBC NOVENA MRT STATION,250,THOMSON ROAD,OCBC NOVENA MRT STATION,250 THOMSON ROAD OCBC NOVENA MRT STATION SINGAPORE 307642,307642,29171.22469,33635.09571,1.320458355,103.8438426,103.8438426
5,UOB NOVENA MRT STATION,238,THOMSON ROAD,UOB NOVENA MRT STATION,238 THOMSON ROAD UOB NOVENA MRT STATION SINGAPORE 307683,307683,29170.978189999998,33635.11369,1.320458518,103.8438404,103.8438404
0,BEDOK RESERVOIR MRT STATION EXIT A,,NIL,BEDOK RESERVOIR MRT STATION EXIT A,BEDOK RESERVOIR MRT STATION EXIT A,NIL,39077.20863,35393.41595,1.336357975,103.9328537,103.9328537
1,BEDOK RESERVOIR MRT STATION EXIT B,,NIL,BEDOK RESERVOIR MRT STATION EXIT B,BEDOK RESERVOIR MRT STATION EXIT B,NIL,39147.951810000006,35418.354439999996,1.336583483,103.93348940000001,103.93348940000001
2,BEDOK RESERVOIR MRT STATION (DT30),371,BEDOK NORTH AVENUE 3,BEDOK RESERVOIR MRT STATION (DT30),371 BEDOK NORTH AVENUE 3 BEDOK RESERVOIR MRT STATION SINGAPORE 469724,469724,39008.313160000005,35421.04087,1.33660783,103.93223459999999,103.93223459999999
0,MARINA SOUTH PIER MRT STATION EXIT A,,NIL,MARINA SOUTH PIER MRT STATION EXIT A,MARINA SOUTH PIER MRT STATION EXIT A,NIL,31223.24743,28130.3505,1.270675235,103.86228059999999,103.86228059999999
1,MARINA SOUTH PIER MRT STATION EXIT B,,NIL,MARINA SOUTH PIER MRT STATION EXIT B,MARINA SOUTH PIER MRT STATION EXIT B,NIL,31366.12272,28219.25068,1.271479202,103.86356440000002,103.86356440000002
2,MARINA SOUTH PIER MRT STATION (NS28),33,MARINA COASTAL DRIVE,MARINA SOUTH PIER MRT STATION (NS28),33 MARINA COASTAL DRIVE MARINA SOUTH PIER MRT STATION SINGAPORE 018948,018948,31241.82601,28169.251089999998,1.271027036,103.8624475,103.8624475
0,FARRER PARK MRT STATION,250,RACE COURSE ROAD,FARRER PARK MRT STATION,250 RACE COURSE ROAD FARRER PARK MRT STATION SINGAPORE 218703,218703,30385.638,32825.91044,1.3131403,103.8547547,103.8547547
0,BARTLEY MRT STATION,90,BARTLEY ROAD,BARTLEY MRT STATION,90 BARTLEY ROAD BARTLEY MRT STATION SINGAPORE 539788,539788,33217.069489999994,36066.36215,1.3424454380000002,103.88019709999999,103.88019709999999
0,DAKOTA MRT STATION,201,OLD AIRPORT ROAD,DAKOTA MRT STATION,201 OLD AIRPORT ROAD DAKOTA MRT STATION SINGAPORE 397973,397973,34226.672139999995,32305.2885,1.308431443,103.8892682,103.8892682
0,PASIR PANJANG MRT STATION EXIT A,,NIL,PASIR PANJANG MRT STATION EXIT A,PASIR PANJANG MRT STATION EXIT A,NIL,23405.333730000002,28720.14701,1.276008977,103.7920338,103.7920338
1,PASIR PANJANG MRT STATION (CC26),119,PASIR PANJANG ROAD,PASIR PANJANG MRT STATION (CC26),119 PASIR PANJANG ROAD PASIR PANJANG MRT STATION SINGAPORE 117424,117424,23329.26471,28742.765760000002,1.276213522,103.7913503,103.7913503
0,OUTRAM PARK MRT STATION,300,EU TONG SEN STREET,OUTRAM PARK MRT STATION,300 EU TONG SEN STREET OUTRAM PARK MRT STATION SINGAPORE 059816,059816,28749.38625,29188.125180000003,1.2802415329999999,103.8400521,103.8400521
0,CLARKE QUAY MRT STATION,10,EU TONG SEN STREET,CLARKE QUAY MRT STATION,10 EU TONG SEN STREET CLARKE QUAY MRT STATION SINGAPORE 059815,059815,29424.60046,29985.4366,1.2874521140000001,103.8461192,103.8461192
0,BOTANIC GARDENS MRT STATION,100,CLUNY PARK ROAD,BOTANIC GARDENS MRT STATION,100 CLUNY PARK ROAD BOTANIC GARDENS MRT STATION SINGAPORE 257494,257494,26004.22275,33848.35954,1.322386995,103.8153855,103.8153855
0,MARYMOUNT MRT STATION EXIT B,,NIL,MARYMOUNT MRT STATION EXIT B,MARYMOUNT MRT STATION EXIT B,NIL,28748.88592,36666.474330000005,1.3478730819999998,103.8400478,103.8400478
1,MARYMOUNT MRT STATION (CC16),60,MARYMOUNT ROAD,MARYMOUNT MRT STATION (CC16),60 MARYMOUNT ROAD MARYMOUNT MRT STATION SINGAPORE 573993,573993,28679.368769999997,36758.71365,1.348707263,103.83942309999999,103.83942309999999
2,MARYMOUNT MRT STATION EXIT A,,NIL,MARYMOUNT MRT STATION EXIT A,MARYMOUNT MRT STATION EXIT A,NIL,28642.07686,36788.8612,1.3489799080000002,103.839088,103.839088
3,OCBC MARYMOUNT MRT STATION,60,MARYMOUNT ROAD,OCBC MARYMOUNT MRT STATION,60 MARYMOUNT ROAD OCBC MARYMOUNT MRT STATION SINGAPORE 573993,573993,28679.3688,36758.71359,1.348707263,103.83942309999999,103.83942309999999
0,HAW PAR VILLA MRT STATION,270,PASIR PANJANG ROAD,HAW PAR VILLA MRT STATION,270 PASIR PANJANG ROAD HAW PAR VILLA MRT STATION SINGAPORE 117396,117396,22287.43611,29377.85647,1.281956887,103.781989,103.781989
0,LORONG CHUAN MRT STATION,150,SERANGOON AVENUE 3,LORONG CHUAN MRT STATION,150 SERANGOON AVENUE 3 LORONG CHUAN MRT STATION SINGAPORE 554533,554533,31504.88185,37071.00151,1.351531286,103.8648122,103.8648122
0,LAVENDER MRT STATION,50,KALLANG ROAD,LAVENDER MRT STATION,50 KALLANG ROAD LAVENDER MRT STATION SINGAPORE 208699,208699,31279.2955,32190.28865,1.307391879,103.86278459999998,103.86278459999998
0,TAI SENG MRT STATION EXIT A,,NIL,TAI SENG MRT STATION EXIT A,TAI SENG MRT STATION EXIT A,NIL,34044.4823,35344.8112,1.335919836,103.8876317,103.8876317
1,TAI SENG MRT STATION EXIT C,,NIL,TAI SENG MRT STATION EXIT C,TAI SENG MRT STATION EXIT C,NIL,34147.19831,35359.15637,1.3360495479999999,103.8885547,103.8885547
2,TAI SENG MRT STATION EXIT B,,NIL,TAI SENG MRT STATION EXIT B,TAI SENG MRT STATION EXIT B,NIL,34116.242,35204.3748,1.334649765,103.8882765,103.8882765
3,TAI SENG MRT STATION (CC11),33,UPPER PAYA LEBAR ROAD,TAI SENG MRT STATION (CC11),33 UPPER PAYA LEBAR ROAD TAI SENG MRT STATION SINGAPORE 534803,534803,34128.79235,35258.74882,1.3351415009999998,103.88838929999999,103.88838929999999
4,OCBC TAI SENG MRT STATION,33,UPPER PAYA LEBAR ROAD,OCBC TAI SENG MRT STATION,33 UPPER PAYA LEBAR ROAD OCBC TAI SENG MRT STATION SINGAPORE 534803,534803,34122.87281,35259.2065,1.335145642,103.88833609999999,103.88833609999999
5,DBS TAI SENG MRT STATION,33,UPPER PAYA LEBAR ROAD,DBS TAI SENG MRT STATION,33 UPPER PAYA LEBAR ROAD DBS TAI SENG MRT STATION SINGAPORE 534803,534803,34115.00819,35280.696710000004,1.335339993,103.88826540000001,103.88826540000001
0,ROCHOR MRT STATION EXIT A,,NIL,ROCHOR MRT STATION EXIT A,ROCHOR MRT STATION EXIT A,NIL,30151.72569,31774.91615,1.3036354959999998,103.85265279999999,103.85265279999999
1,ROCHOR MRT STATION EXIT B,,NIL,ROCHOR MRT STATION EXIT B,ROCHOR MRT STATION EXIT B,NIL,30193.79126,31833.642969999997,1.304166597,103.8530308,103.8530308
2,ROCHOR MRT STATION (DT13),11,ROCHOR CANAL ROAD,ROCHOR MRT STATION (DT13),11 ROCHOR CANAL ROAD ROCHOR MRT STATION SINGAPORE 188505,188505,30164.70185,31798.87668,1.303852185,103.8527694,103.8527694
3,DBS ROCHOR MRT STATION,11,ROCHOR CANAL ROAD,DBS ROCHOR MRT STATION,11 ROCHOR CANAL ROAD DBS ROCHOR MRT STATION SINGAPORE 188505,188505,30164.701910000003,31798.876710000004,1.3038521859999999,103.8527694,103.8527694
0,LITTLE INDIA MRT STATION,60,BUKIT TIMAH ROAD,LITTLE INDIA MRT STATION,60 BUKIT TIMAH ROAD LITTLE INDIA MRT STATION SINGAPORE 229900,229900,29866.906239999997,32224.174389999996,1.307698447,103.8500936,103.8500936
0,STEVENS MRT STATION EXIT A,,NIL,STEVENS MRT STATION EXIT A,STEVENS MRT STATION EXIT A,NIL,27150.38088,33620.813519999996,1.320329203,103.8256843,103.8256843
1,STEVENS MRT STATION (TE11),82,STEVENS ROAD,STEVENS MRT STATION (TE11),82 STEVENS ROAD STEVENS MRT STATION SINGAPORE 257879,257879,27137.321519999998,33510.81053,1.319334374,103.825567,103.825567
2,STEVENS MRT STATION (DT10),92,STEVENS ROAD,STEVENS MRT STATION (DT10),92 STEVENS ROAD STEVENS MRT STATION SINGAPORE 257877,257877,27188.22996,33591.66086,1.320065558,103.82602440000001,103.82602440000001
0,BUKIT PANJANG MRT STATION,950,UPPER BUKIT TIMAH ROAD,BUKIT PANJANG MRT STATION,950 UPPER BUKIT TIMAH ROAD BUKIT PANJANG MRT STATION SINGAPORE 678213,678213,19972.866830000003,40170.50697,1.3795612119999998,103.76118890000001,103.76118890000001
0,CASHEW MRT STATION,1,CASHEW ROAD,CASHEW MRT STATION,1 CASHEW ROAD CASHEW MRT STATION SINGAPORE 679696,679696,20320.74121,39096.2386,1.3698460140000002,103.76431509999999,103.76431509999999
0,SIXTH AVENUE MRT STATION EXIT B,,NIL,SIXTH AVENUE MRT STATION EXIT B,SIXTH AVENUE MRT STATION EXIT B,NIL,23938.99969,34860.37082,1.33153906,103.79682820000001,103.79682820000001
1,SIXTH AVENUE MRT STATION EXIT A,,NIL,SIXTH AVENUE MRT STATION EXIT A,SIXTH AVENUE MRT STATION EXIT A,NIL,23908.72995,34775.68287,1.330773169,103.7965562,103.7965562
2,SIXTH AVENUE MRT STATION (DT7),777,BUKIT TIMAH ROAD,SIXTH AVENUE MRT STATION (DT7),777 BUKIT TIMAH ROAD SIXTH AVENUE MRT STATION SINGAPORE 269784,269784,23947.749369999998,34785.0233,1.330857645,103.7969068,103.7969068
3,SIXTH AVENUE MRT STATION.,777,BUKIT TIMAH ROAD,SIXTH AVENUE MRT STATION.,777 BUKIT TIMAH ROAD SIXTH AVENUE MRT STATION. SINGAPORE 269784,269784,23954.698630000003,34796.40533,1.330960581,103.7969693,103.7969693
0,TOA PAYOH MRT STATION EXIT B,,NIL,TOA PAYOH MRT STATION EXIT B,TOA PAYOH MRT STATION EXIT B,NIL,29584.67727,34944.17381,1.332297176,103.8475578,103.8475578
1,TOA PAYOH MRT STATION EXIT C,,NIL,TOA PAYOH MRT STATION EXIT C,TOA PAYOH MRT STATION EXIT C,NIL,29558.038080000002,35022.71127,1.333007442,103.8473184,103.8473184
2,TOA PAYOH MRT STATION EXIT A,,NIL,TOA PAYOH MRT STATION EXIT A,TOA PAYOH MRT STATION EXIT A,NIL,29603.15169,34952.938819999996,1.332376442,103.8477238,103.8477238
3,TOA PAYOH MRT STATION EXIT D,,NIL,TOA PAYOH MRT STATION EXIT D,TOA PAYOH MRT STATION EXIT D,NIL,29468.891539999997,35052.71017,1.333278746,103.84651740000001,103.84651740000001
4,TOA PAYOH MRT STATION (NS19),510,LORONG 6 TOA PAYOH,TOA PAYOH MRT STATION (NS19),510 LORONG 6 TOA PAYOH TOA PAYOH MRT STATION SINGAPORE 319398,319398,29578.48907,34980.89629,1.332629281,103.8475022,103.8475022
5,DBS TOA PAYOH MRT STATION,510,LORONG 6 TOA PAYOH,DBS TOA PAYOH MRT STATION,510 LORONG 6 TOA PAYOH DBS TOA PAYOH MRT STATION SINGAPORE 319398,319398,29590.35841,34986.957,1.332684091,103.8476089,103.8476089
6,OCBC TOA PAYOH MRT STATION,530,LORONG 6 TOA PAYOH,OCBC TOA PAYOH MRT STATION,530 LORONG 6 TOA PAYOH OCBC TOA PAYOH MRT STATION SINGAPORE 310530,310530,29586.8456,34977.29679,1.332596728,103.8475773,103.8475773
7,UOB TOA PAYOH MRT STATION,510,LORONG 6 TOA PAYOH,UOB TOA PAYOH MRT STATION,510 LORONG 6 TOA PAYOH UOB TOA PAYOH MRT STATION SINGAPORE 319398,319398,29584.210989999996,34986.07881,1.332676149,103.8475536,103.8475536
0,WOODLANDS SOUTH MRT STATION EXIT 4,,NIL,WOODLANDS SOUTH MRT STATION EXIT 4,WOODLANDS SOUTH MRT STATION EXIT 4,NIL,23686.519969999998,45371.65275,1.426599276,103.794558,103.794558
1,WOODLANDS SOUTH MRT STATION EXIT 1,,NIL,WOODLANDS SOUTH MRT STATION EXIT 1,WOODLANDS SOUTH MRT STATION EXIT 1,NIL,23502.665269999998,45455.65197,1.427358906,103.7929059,103.7929059
2,WOODLANDS SOUTH MRT STATION EXIT 2,,NIL,WOODLANDS SOUTH MRT STATION EXIT 2,WOODLANDS SOUTH MRT STATION EXIT 2,NIL,23547.25389,45486.34912,1.427636527,103.7933065,103.7933065
3,WOODLANDS SOUTH MRT STATION EXIT 3,,NIL,WOODLANDS SOUTH MRT STATION EXIT 3,WOODLANDS SOUTH MRT STATION EXIT 3,NIL,23694.560719999998,45461.908639999994,1.427415518,103.7946302,103.7946302
4,WOODLANDS SOUTH MRT STATION EXIT 5,,NIL,WOODLANDS SOUTH MRT STATION EXIT 5,WOODLANDS SOUTH MRT STATION EXIT 5,NIL,23668.48881,45286.64881,1.425830528,103.79439599999999,103.79439599999999
5,WOODLANDS SOUTH MRT STATION (TE3),30,WOODLANDS DRIVE 17,WOODLANDS SOUTH MRT STATION (TE3),30 WOODLANDS DRIVE 17 WOODLANDS SOUTH MRT STATION SINGAPORE 737741,737741,23542.55457,45459.758819999995,1.427396053,103.79326429999999,103.79326429999999
0,POTONG PASIR MRT STATION,55,UPPER SERANGOON ROAD,POTONG PASIR MRT STATION,55 UPPER SERANGOON ROAD POTONG PASIR MRT STATION SINGAPORE 347694,347694,32011.431839999997,34842.57024,1.331378085,103.8693635,103.8693635
0,HOUGANG MRT STATION,80,HOUGANG CENTRAL,HOUGANG MRT STATION,80 HOUGANG CENTRAL HOUGANG MRT STATION SINGAPORE 538758,538758,34559.66185,39150.247789999994,1.3703347240000001,103.8922618,103.8922618
0,BOON KENG MRT STATION,900,SERANGOON ROAD,BOON KENG MRT STATION,900 SERANGOON ROAD BOON KENG MRT STATION SINGAPORE 328260,328260,31197.824589999997,33577.74778,1.319939577,103.8620527,103.8620527
0,UPPER CHANGI MRT STATION EXIT B,,NIL,UPPER CHANGI MRT STATION EXIT B,UPPER CHANGI MRT STATION EXIT B,NIL,42260.64122,35911.76355,1.341044381,103.9614589,103.9614589
1,UPPER CHANGI MRT STATION EXIT C,,NIL,UPPER CHANGI MRT STATION EXIT C,UPPER CHANGI MRT STATION EXIT C,NIL,42279.16607,36015.75508,1.341984832,103.9616254,103.9616254
2,UPPER CHANGI MRT STATION EXIT D,,NIL,UPPER CHANGI MRT STATION EXIT D,UPPER CHANGI MRT STATION EXIT D,NIL,42214.09269,35890.96588,1.340856317,103.96104059999999,103.96104059999999
3,UPPER CHANGI MRT STATION EXIT A,,NIL,UPPER CHANGI MRT STATION EXIT A,UPPER CHANGI MRT STATION EXIT A,NIL,42246.13441,36003.9595,1.341878173,103.96132850000001,103.96132850000001
4,UPPER CHANGI MRT STATION (DT34),690,UPPER CHANGI ROAD EAST,UPPER CHANGI MRT STATION (DT34),690 UPPER CHANGI ROAD EAST UPPER CHANGI MRT STATION SINGAPORE 485990,485990,42262.16854,35988.65797,1.341739784,103.9614726,103.9614726
0,CHANGI AIRPORT MRT STATION EXIT A,,NIL,CHANGI AIRPORT MRT STATION EXIT A,CHANGI AIRPORT MRT STATION EXIT A,NIL,45356.362,37603.41804,1.356341421,103.9892766,103.9892766
1,CHANGI AIRPORT MRT STATION EXIT B,,NIL,CHANGI AIRPORT MRT STATION EXIT B,CHANGI AIRPORT MRT STATION EXIT B,NIL,45136.88712,37700.58138,1.357220256,103.9873046,103.9873046
2,CHANGI AIRPORT MRT STATION (CG2),70,AIRPORT BOULEVARD,CHANGI AIRPORT MRT STATION (CG2),70 AIRPORT BOULEVARD CHANGI AIRPORT MRT STATION SINGAPORE 819661,819661,45201.32039,37729.193380000004,1.357478974,103.98788359999999,103.98788359999999
0,BRADDELL MRT STATION,377,LORONG 1 TOA PAYOH,BRADDELL MRT STATION,377 LORONG 1 TOA PAYOH BRADDELL MRT STATION SINGAPORE 319756,319756,29495.431689999998,35807.54547,1.3401052070000001,103.8467559,103.8467559
0,BUANGKOK MRT STATION,10,SENGKANG CENTRAL,BUANGKOK MRT STATION,10 SENGKANG CENTRAL BUANGKOK MRT STATION SINGAPORE 545061,545061,34647.34459,40627.47059,1.3836941719999998,103.89305,103.89305
0,RAFFLES PLACE MRT STATION,5,RAFFLES PLACE,RAFFLES PLACE MRT STATION,5 RAFFLES PLACE RAFFLES PLACE MRT STATION SINGAPORE 048618,048618,30019.33135,29596.34373,1.2839332620000001,103.85146309999999,103.85146309999999
0,HOLLAND VILLAGE MRT STATION EXIT B,,NIL,HOLLAND VILLAGE MRT STATION EXIT B,HOLLAND VILLAGE MRT STATION EXIT B,NIL,23821.15977,32597.14093,1.311071198,103.79576970000001,103.79576970000001
1,HOLLAND VILLAGE MRT STATION EXIT C,,NIL,HOLLAND VILLAGE MRT STATION EXIT C,HOLLAND VILLAGE MRT STATION EXIT C,NIL,23818.341969999998,32557.576439999997,1.31071339,103.7957443,103.7957443
2,HOLLAND VILLAGE MRT STATION EXIT A,,NIL,HOLLAND VILLAGE MRT STATION EXIT A,HOLLAND VILLAGE MRT STATION EXIT A,NIL,23861.75501,32613.988269999998,1.311223565,103.7961344,103.7961344
3,HOLLAND VILLAGE MRT STATION (CC21),200,HOLLAND AVENUE,HOLLAND VILLAGE MRT STATION (CC21),200 HOLLAND AVENUE HOLLAND VILLAGE MRT STATION SINGAPORE 278995,278995,23891.21523,32726.41283,1.312240296,103.79639909999999,103.79639909999999
4,DBS HOLLAND VILLAGE MRT STATION,200,HOLLAND AVENUE,DBS HOLLAND VILLAGE MRT STATION,200 HOLLAND AVENUE DBS HOLLAND VILLAGE MRT STATION SINGAPORE 278995,278995,23891.21529,32726.412889999996,1.312240297,103.79639909999999,103.79639909999999
0,TELOK BLANGAH MRT STATION EXIT A,,NIL,TELOK BLANGAH MRT STATION EXIT A,TELOK BLANGAH MRT STATION EXIT A,NIL,25391.9759,28136.929180000003,1.270734786,103.80988459999999,103.80988459999999
1,TELOK BLANGAH MRT STATION (CC28),463,TELOK BLANGAH ROAD,TELOK BLANGAH MRT STATION (CC28),463 TELOK BLANGAH ROAD TELOK BLANGAH MRT STATION SINGAPORE 109028,109028,25378.2908,28133.79905,1.270706477,103.80976159999999,103.80976159999999
2,OCBC TELOK BLANGAH MRT STATION,463,TELOK BLANGAH ROAD,OCBC TELOK BLANGAH MRT STATION,463 TELOK BLANGAH ROAD OCBC TELOK BLANGAH MRT STATION SINGAPORE 109028,109028,25378.2908,28133.799110000004,1.270706478,103.80976159999999,103.80976159999999
0,TELOK AYER MRT STATION EXIT B,,NIL,TELOK AYER MRT STATION EXIT B,TELOK AYER MRT STATION EXIT B,NIL,29719.28592,29437.864410000002,1.282500049,103.84876700000001,103.84876700000001
1,TELOK AYER MRT STATION EXIT C,,NIL,TELOK AYER MRT STATION EXIT C,TELOK AYER MRT STATION EXIT C,NIL,29728.088180000002,29413.06043,1.28227573,103.84884609999999,103.84884609999999
2,TELOK AYER MRT STATION EXIT A,,NIL,TELOK AYER MRT STATION EXIT A,TELOK AYER MRT STATION EXIT A,NIL,29691.000760000003,29370.527469999997,1.281891079,103.8485129,103.8485129
3,TELOK AYER MRT STATION (DT18),7,CROSS STREET,TELOK AYER MRT STATION (DT18),7 CROSS STREET TELOK AYER MRT STATION SINGAPORE 048416,048416,29706.12592,29390.195389999997,1.282068948,103.8486488,103.8486488
0,CANBERRA MRT STATION (NS12),11,CANBERRA LINK,CANBERRA MRT STATION (NS12),11 CANBERRA LINK CANBERRA MRT STATION SINGAPORE 756972,756972,27597.596939999996,47193.60088,1.443076641,103.82970259999999,103.82970259999999
0,WOODLANDS NORTH MRT STATION EXIT 1,,NIL,WOODLANDS NORTH MRT STATION EXIT 1,WOODLANDS NORTH MRT STATION EXIT 1,NIL,22672.11658,47730.90511,1.4479353190000002,103.7854422,103.7854422
1,WOODLANDS NORTH MRT STATION EXIT 2,,NIL,WOODLANDS NORTH MRT STATION EXIT 2,WOODLANDS NORTH MRT STATION EXIT 2,NIL,22634.61107,47854.9029,1.4490567019999998,103.7851052,103.7851052
2,WOODLANDS NORTH MRT STATION (TE1),20,WOODLANDS NORTH COAST ROAD,WOODLANDS NORTH MRT STATION (TE1),20 WOODLANDS NORTH COAST ROAD WOODLANDS NORTH MRT STATION SINGAPORE 737668,737668,22699.99124,47770.39457,1.448292453,103.7856927,103.7856927
